name,juridical,description,address,longitude,latitude,email,phone,link,departement,proposition
Centre de Ressources Autisme Région Alsace,,"Pôle départemental Adultes 67, Dr Codruta Ionescu-Ion – Dr Arielle Hochner",141 avenue de Strasbourg (EPSAN secteur 67G03) BP 83 67173 Brumath CEDEX,7.727577399999999,48.5679891,,388645737,,,,,,,,,,
MDPH Bas Rhin,,,6a rue du Verdon 67100 Strasbourg,,,accueil.mdph@cg67.fr,"08 00 74 79 00, 03 69 06 71 00",,,,,,,,,,
ABA67,,,15 route de Krauterghersheim (Chez Karine Maehrel) 67870 Bischoffsheim,7.736846799999999,48.550798,aba67.asso@gmail.com,608321965,,,,,,,,,,
Autisme Alsace,,,19 rue Louis Wiedemann 67230 Huttenheim,7.489887,48.4870639,,undefined,,,,,,,,,,
Réseau Familles – Pôle départemental Adultes 67,,,141 avenue de Strasbourg 67173 Brumath CEDEX,7.588179100000001,48.3629221,,388645737,,,,,,,,,,
Pôle régional Enfants et Adolescents et Antenne 68,,,15 rue Cranach 67200 Strasbourg,,,,388115952,,,,,,,,,,
Centre de Ressources Autisme Région Alsace,,Antenne 68,27 rue du 4ème RSM (CH Rouffach) 68250 Rouffach,7.7181234,48.5652452,,389787810,,,,,,,,,,
Centre de Ressources Autisme Région Alsace,,"Pôle départemental Adultes 68, Dr Christian Schaal – Dr Ayman Murad",13 rue Charles Sandherr (Espace Autismes) 68000 Colmar,7.292786099999999,47.934053,,389249923,,,,,,,,,,
MDPH Haut Rhin,,,48 avenue de la République BP 20351 68006 Colmar CEDEX,7.358511999999999,48.0793589,mdph@cg68.fr,389306810,,,,,,,,,,
Als’Asperger,,,Centre Hospitalier de Rouffach 68250 Rouffach,,,alsasperger@free.fr,781986433,,,,,,,,,,
Amitiés Autisme,,,6 rue Runzbach (Mme Vix Fabienne) 68230 Soultzbach-les-Bains,7.299417,47.957064,amitieautisme@gmail.com,389711348,,,,,,,,,,
Vital Autiste,,,1 rue Edighoffen 68000 Colmar,7.202845,48.036682,,"03 89 27 10 55, 06 84 10 41 16",,,,,,,,,,
Collectif Autisme Sud-Alsace,,,undefined,7.354005799999999,48.074696,,contact@collectifautisme68.fr,,,,,,,,,,
CRA Pôle adultes 68 – Espace Autismes,,,13 rue Charles Sandherr 68000 Colmar,-104.7956055,39.9129412,,"03 89 24 99 23, 03 89 23 11 01",,,,,,,,,,
Centre de Ressources Autisme Aquitaine,,"Antenne de Bergerac, Médecin référent : Dr Toky Rajerison",9 avenue Albert Calmette (Centre Hospitalier Samuel Pozzi) 24108 Bergerac,7.3458717,48.0666088,,"05 53 63 86 63, 05 53 63 86 58",,,,,,,,,,
MDPH Dordogne,,,Rue du 26ème Régiment d’Infanterie (Bâtiment E - Cité Administrative Bugeaud) 24016 Périgueux CEDEX,0.483392,44.853806,mdp24@dordogne.fr,"05 53 03 33 55, 05 53 03 33 56",,,,,,,,,,
APEA Champcevinel,,"la Directrice : Mme SIRAU, dépend de la Fondation de l’Isle de Périgueux",Lieu-dit Majoulet 24750 Champcevinel,,,,553132011,,,,,,,,,,
Fondation John Bost,,,6 rue John Bost 24130 La Force,0.725841,45.215868,,"05 53 58 01 03, 05 53 58 54 13",,,,,,,,,,
Sésame Autisme,,,6 rue de la Dordogne 24680 Gardonne,0.3793381,44.8676452,sesameautisme24@wanadoo.fr,553270751,,,,,,,,,,
Réseau Bulle 24,,Entraide et solidarité pour les familles et les personnes concernées par l’autisme,24680 Gardonne,0.3329764,44.8381181,association24@reseaubulle.fr,06 22 58 52 64 (Vincent),,,,,,,,,,
Centre de Ressources Autisme Aquitaine,,Coordonnateur : Dr Anouk Amestoy par délégation du Pr Bouvard,121 rue de la Béchade (Hôpital Charles Perrens) 33076 Bordeaux CEDEX,0.331866,44.836377,,"05 56 56 67 19, 05 56 56 67 10",,,,,,,,,,
MDPH Gironde,,,264 boulevard Godard (Immeuble le Phénix) 33300 Bordeaux,,,mdph-accueil@cg33.fr,"05 56 99 69 00, 05 56 99 69 50",,,,,,,,,,
D’une rive à l’autre,,,19 rue La Tourasse 33750 Saint-Quentin-de-Baron,-0.554149,44.8772685,,association.dunerivealautre@gmail.com,,,,,,,,,,
J’suis autiste mais j’me soigne,,,21 route du Port 33820 Braud-et-Saint-Louis,-0.2851366,44.8231501,abavb@vaincrelautisme.org,628435892,,,,,,,,,,
Lo Camin,,,Rue du Canton (Maison de Pays) 33490 Saint-Macaire,-0.6337554999999999,45.2473305,asso.locamin@gmail.com,"05 56 63 06 22, 06 31 47 41 80",,,,,,,,,,
ABA Attitude,,,51 cours Tartas (Maison des Associations) 33120 Arcachon,-0.226334,44.565289,aba.attitude@gmail.com,"05 56 66 69 18, 06 83 05 80 34",,,,,,,,,,
Teddy,,,9 rue Émile Combes 33270 Floirac,-1.1785016,44.652297,assoc.teddy@hotmail.fr,"05 57 54 88 41, 06 43 88 74 72",,,,,,,,,,
ADAPEI Gironde,,,39 rue Robert Caumont (Bureaux du lac II – bât. R) 33049 Bordeaux CEDEX,-0.5304781,44.8287379,siege@adapei33.com,"05 56 11 11 11, 05 56 11 11 12",,,,,,,,,,
Alter z’égaux,,,"5 square Jean Pionneau (Résidence du Parc, appt. 433) 33520 Bruges",,,enfantfee@modulonet.fr,"05 47 29 75 99, 06 16 06 54 73",,,,,,,,,,
APEI de Bègles Mussonville,,,98 rue Alexie Labro 33130 Bègles,-0.6127469999999999,44.88179299999999,"chcl.bardou@free.fr,, michele.houles@neuf.fr","05 56 87 87 70, 06 18 02 80 98",,,,,,,,,,
ARA Réseau Aquitaine Autisme et Troubles apparentés,,,6 chemin de Lou Poumey 33610 Cestas,-0.5601311999999999,44.7915193,aureag@wanadoo.fr,557835743,,,,,,,,,,
Asper 33,,,45 rue Saint Genès 33000 Bordeaux,-0.6758957,44.7432951,asper33@free.fr,556241030,,,,,,,,,,
Autisme Sud Gironde,,,2 rue de la Cavalle (Z.I. de la Briqueterie) 33610 Canéjan,-0.5796733,44.82910260000001,celes.sl@wanadoo.fr,"05 56 89 89 12, 06 17 32 28 04",,,,,,,,,,
Autisme Gironde,,,6 rue des Chevreuils (Lotissement Lestrille) 33370 Artigues-près-Bordeaux,-0.654621,44.762324,"contact@autisme-gironde.fr,, leclercjj@wanadoo.fr","05 56 31 76 62, 05 56 74 23 04",,,,,,,,,,
Handi Intégration,,,49 rue Armand Dulamon 33000 Bordeaux,-0.4957106000000001,44.873178,chan.sew.family@wanadoo.fr,556697067,,,,,,,,,,
Inter-phases,,,42 rue Marcelin Berthelot 33140 Villenave-d’Ornon,-0.5616766,44.8648017,interphases@laposte.net,679906035,,,,,,,,,,
P’tit Dom,,,15 chemin de Pichey 33170 Gradignan,-0.5781542,44.762734,ptitdom33@voila.fr,"06 76 38 04 25, 06 32 39 25 71",,,,,,,,,,
Nuage Bleu,,,3 rue Samuel Kirz (Résidence Québec) 33000 Bordeaux,-0.6227341,44.7772067,nuagebleu.association@orange.fr,556503711,,,,,,,,,,
Sésame Autisme Aquitaine,,,11 rue Rémi Belleau (Résidence Jean Monet) 33400 Talence,-0.5872689999999999,44.8350088,"sesame-autisme.aquitaine@wanadoo.f,, daniellequoix@aol.com",556849171,,,,,,,,,,
Association Sésame Autisme en Pays Foyen (ASAPF),,,Route du Tizac 33220 Port-Sainte-Foy-et-Ponchapt,-0.588054,44.802614,sesaasapf@free.fr,553270751,,,,,,,,,,
Scolarited,,Intégration sociale pour enfants « Asperger » et autistes de haut niveau,7 route de Touty 33370 Pompignac,0.193517,44.850934,scolarited@aol.com,665259724,,,,,,,,,,
Unis Vers,,,2 lieu-dit Loubeyre 33190 Barie,-0.4397062,44.8577393,unis_vers33@yahoo.fr,610352148,,,,,,,,,,
URAPEI Aquitaine,,,4 bis avenue de Chavailles (Les Bureaux du Lac I bât. 9) 33190 Bruges,-0.1239364,44.569269,urapei-aquitaine@wanadoo.fr,"05 56 75 53 03, 05 56 75 57 64",,,,,,,,,,
Union Régionale Autisme France Aquitaine,,Partenaire Autisme France,6 rue des Chevreuils (Lotissement Lestrille) 33370 Artigues-près-Bordeaux,3.2246995,51.209348,"leclercjj@wanadoo.fr,, leclerc.jeanjacques@neuf.fr",556742304,,,,,,,,,,
Centre de Ressources Autisme Aquitaine,,Médecin référent : Dr Julie Farbos,Avenue de Nonères (Hôpital de jour « Maison d’Oze ») 40024 Mont-de-Marsan,-0.4957106000000001,44.873178,,de Mont-de-Marsan,,,,,,,,,,
MDPH Landes,,,836 avenue Eloi Ducom 40025 Mont-de-Marsan CEDEX,-0.4997819999999999,43.893485,mlph@cg40.fr,"05 58 51 53 73, 05 58 46 12 54",,,,,,,,,,
Autisme Amitié,,Partenaire Autisme France,1665 route de Soustons 40140 Magescq,,,,558477744,,,,,,,,,,
Autisme Landes,,Partenaire Autisme France,Maison Rome (c/o Mme Isabelle Toullec) 40300 Saint-Lon-les-Mines,-1.2459859,43.7677224,autisme.landes@club-internet.fr,"05 58 57 62 63, 06 63 16 26 98",,,,,,,,,,
Centre de Ressources Autisme Aquitaine,,"Antenne d’Agen, Médecin référent : Dr Cédric Galera",47916 Agen,-1.126774,43.614072,,"05 53 77 69 82, 05 53 77 39 02",,,,,,,,,,
MDPH Lot-et-Garonne,,,1633 avenue du Maréchal Leclerc (Hôtel du Département) 47916 Agen CEDEX 9,2.092694,44.2641812,mdph47@cg47.fr,"05 53 69 20 50, 05 53 69 20 80",,,,,,,,,,
Planète Autisme,,Médecin référent : Dr Cédric Galera,10 rue Debussy 47000 Agen,,,planeteautisme@gmail.com,"09 65 27 57 95, 06 83 41 86 66",,,,,,,,,,
Centre de Ressources Autisme Aquitaine,,"Antenne de Pau, La Directrice : Mme SIRAU",29 avenue du Général Leclerc (Centre Hospitalier des Pyrénées) 64039 Pau CEDEX,0.6381334,44.1957954,,"05 59 80 94 53, 05 59 80 95 49",,,,,,,,,,
Centre de Ressources Autisme Aquitaine,,"Antenne de Bayonne, Médecin référent : Dr Pierre Liange",13 avenue de l’Interne Jacques Loeb (Centre Hospitalier de la Côte Basque) 64109 Bayonne,2.739653,48.0085711,,"05 59 44 35 35, 05 59 63 35 88",,,,,,,,,,
MDPH Pyrénées Atlantiques,,,Rue Pierre Bonnard (Cité administrative) 64000 Pau,,,mdph.pau@mdph64.com,"05 59 27 50 50, 05 59 27 50 51",,,,,,,,,,
AGPI (Association pour la Guidance Parentale et Infantile),,,16 bis rue Jacques Terrier 64000 Pau,-0.370797,43.2951,agpi64@free.fr,559069318,,,,,,,,,,
ADAPEI des Pyrénées Atlantiques,,,105 avenue des Lilas BP 123 64001 Pau CEDEX,-0.3816774,43.2895852,adapei@adapei64.fr,559846489,,,,,,,,,,
Autisme et TED Côte Basque,,Partenaire Autisme France,130 chemin des Galharret 64690 Mouguerre,,,,614609503,,,,,,,,,,
Désir d’Ailes,,Partenaire Autisme France,11 rue Tran BP 21 64420 Pau,,,desir-dailes@hotmail.fr,682848486,,,,,,,,,,
Autisme Pau Béarn,,Partenaire Autisme France,12 avenue du 18ème RI 64000 Pau,-0.370797,43.2951,autisme.pau.bearn@hotmail.fr,"05 59 68 20 94, 05 59 68 24 42",,,,,,,,,,
Autisme 64 A.T.G.D.P.A.,,Partenaire Autisme France,Bourg (Mairie) 64120 Larceveau-Arros-Cibits,-0.3811452,43.2969345,busquetj@orange.fr,"05 59 80 24 28 (président), 06 15 99 53 46 (trésorière), 05 59 65 43 86",,,,,,,,,,
F.A.M. Bizideki,,,Quartier Cibits 64120 Larceveau-Arros-Cibits,-1.1017334,43.2226788,foyer.bizideki@orange.fr,559379150,,,,,,,,,,
Chrysalide,,,10 place André Emlinger (Le Forum) 64100 Bayonne,-1.087469,43.2257559,asschrysalide@wanadoo.fr,559421603,,,,,,,,,,
TED et TSA vont à l’École,,,15 rue du Ruisseau 64420 Artigueloutan,-1.474841,43.492949,ted.et.tsa@orange.fr,559801979,,,,,,,,,,
Un Nouveau Regard,,"Partenaire Autisme France, Pour les parents d’enfants autistes",Quartier Minhotz (Maison Batea) 64240 Hasparren,-0.2423919,43.27347109999999,daugreilh.jean-guy@neuf.fr,559294986,,,,,,,,,,
MDPH Allier,,,Rue Aristide Briand (Château de Bellevue) 03400 Yzeure,-1.30525,43.383952,contact@mdph03.fr,"04 70 34 15 25, 04 70 34 15 21",,,,,,,,,,
Allier Sésame Autisme,,,5 route de Vallon-en-Sully 03370 Chazemais,3.354775,46.566314,contact@autisme03.fr,470067532,,,,,,,,,,
APEAH,,Partenaire Autisme France,35 rue du Docteur ROUX BP 1225 03104 Montluçon,2.5259473,46.48344549999999,apeah@apeah.org,470022421,,,,,,,,,,
MDPH Cantal,,,Rue Alexandre Pinard (Conseil général du Cantal) 15000 Aurillac,2.6019912,46.3415466,acourchinoux@cg15.fr,471497979,,,,,,,,,,
ADAPEI Cantal,,,1 rue Laparra de Fieux (Rez-de-chaussée) 15000 Aurillac,2.444997,44.930953,adapeiasso@adapei15.com,"04 71 48 44 97, 04 71 48 85 33",,,,,,,,,,
Association Éducautisme,,,Les Roussinches 15230 Brezons,2.444997,44.930953,dolcherjean@orange.fr,"04 71 20 97 66, 06 85 08 36 97",,,,,,,,,,
ADA 15,,Partenaire Autisme France,3bis rue Louis Farges 15000 Aurillac,2.793128,45.005336,autisme.ada15@gmail.com,688226694,,,,,,,,,,
Sésame Autisme Cantal,,,10 rue Paul Doumer 15400 Riom-ès-Montagnes,2.4515128,44.9369068,,471781750,,,,,,,,,,
MDPH Haute-Loire,,,9 rue des Moulins CS 40114 43009 Le Puy-en-Velay,2.6672576,45.2837879,accueil@mdph43.fr,"04 71 07 21 80, 04 71 07 21 99",,,,,,,,,,
Autisme Haute-Loire,,,7 avenue de la Libération (Mairie) 43120 Monistrol-sur-Loire,3.882936,45.042768,c.bapt@wanadoo.fr,471753305,,,,,,,,,,
Haute-Loire Avenir,,,15 rue Saint Antoine 43200 Yssingeaux,7.7203409,48.5947809,hte-loire.avenir@wanadoo.fr,"04 71 56 02 78, 04 71 56 01 58",,,,,,,,,,
Centre de Ressources Autisme Auvergne,,,28 place Henri Dunant (CHU de Clermont-Ferrand) 63000 Clermont-Ferrand,4.124959,45.1430689,,"04 73 75 19 48 (enfants et ados), 04 73 75 49 93 (adultes)",,,,,,,,,,
MDPH Puy-de-Dôme,,,11 rue Vaucanson 63100 Clermont-Ferrand,3.1198023,45.771264,mdph@mdph63.fr,"04 73 74 51 20, 04 73 74 51 28",,,,,,,,,,
T’Asperger,,,4 avenue de Royat 63130 Royat,3.1079363,45.7869736,,tasperger63@gmail.com,,,,,,,,,,
Agir pour vivre ensemble nos différences,,,2 allée du Clos des Palles 63200 Marsat,3.0590458,45.7459633,avec@laposte.net,682948818,,,,,,,,,,
Autisme Action,,Partenaire Autisme France,4 avenue Anatole France (Résidence Orée du Parc - appt. 166) 63130 Royat,3.082127,45.873235,contact@autisme-action.com,"04 73 28 44 41, 04 73 28 44 41",,,,,,,,,,
A.B.A. - Auvergne,,,1 rue de la Coutellerie 63350 Saint-Rémy-sur-Durolle,3.054232,45.764929,,asso.aba.auvergne@gmail.com,,,,,,,,,,
Autisme Auvergne,,Partenaire Autisme France,17 rue de Riom (Crouzol) 63530 Volvic,3.5476833,45.8538827,,473714590,,,,,,,,,,
Autisme Progrès 63,,,22 avenue Gershwin 63200 Riom,3.04993,45.8879284,autismeprogres63@gmail.com,443980011,,,,,,,,,,
Notre Petit Prince Asperger,,,63940 Marsac-en-Livradois,3.1377917,45.8937069,,notrepetitprinceasperger@gmail.com,,,,,,,,,,
Sésame Autisme,,,24 allée des Amandiers 63170 Aubière,3.729583,45.478751,,473445281,,,,,,,,,,
Centre de Ressources Autisme Basse-Normandie,,"Coordonnateur : Dr Edgar Moussaoui, Chef de service : Pr Jean-Marc Baleyte",27 boulevard Bertrand (CHU de Caen – Service de psychiatrie de l’enfant et de l’adolescent) 14033 Caen CEDEX 9,3.1086435,45.7534599,,"02 31 06 58 20, 02 31 06 58 21, 02 31 06 58 33",,,,,,,,,,
A.B.A. - Apprendre Autrement Normandie,,,BP 64 14160 Dives-sur-Mer,,,,abanormandie@sfr.fr,,,,,,,,,,
Autisme Basse-Normandie,,Partenaire Autisme France,54 rue Eustache Restout 14000 Caen,-0.100024,49.28656,evelyne.nove@wanadoo.fr,"02 31 52 04 27, 02 31 52 04 27",,,,,,,,,,
MDPH Calvados,,,17 rue du 11 Novembre 14000 Caen,-0.355746,49.1639259,mdph@calvados.fr,800100522,,,,,,,,,,
MDPH Manche,,,586 rue de l’Exode (Maison des Solidarités de la Manche) 50008 Saint Lô CEDEX,-0.3580588,49.1779108,mda@manche.fr,"08 10 10 10 50, 02 33 55 86 17",,,,,,,,,,
APAEIA (Association des Parents et Amis d’Enfants & Adultes Inadaptés de l’Avranchin),,,Rue de Dunkerque BP 135 50301 Avranches,,,as.apaeia@laposte.net,"02 33 79 03 50, 02 33 79 03 69",,,,,,,,,,
Autisme Manche,,Autre coordonnées : La Campionnerie 50260 L’Étang-Bertrand,Les Coignardières 50300 Le Val-Saint-Père,,,"philippe.dumas-milne-edwards@wanadoo.fr,, nathalie.baudry6@wanadoo.fr","02 33 58 90 95, 02 33 04 64 70",,,,,,,,,,
Autisme Basse-Normandie,,,122 bis rue du Val-de-Saire 50100 Cherbourg,-1.3809108,48.66424199999999,autisme.basse.normandie@orange.fr,231520427,,,,,,,,,,
Autisme Orne,,,6 rue Desaix 61300 L’Aigle,-1.6070805,49.6386838,agnes.woimant@wanadoo.fr,"02 33 24 74 62, 02 33 24 05 59",,,,,,,,,,
MDPH Orne,,,13 rue Marchand Saillant BP 169 61005 Alençon,0.630169,48.761988,mdph@cg61.fr,233150031,,,,,,,,,,
ADAPEI de l’Orne,,,48 rue Lazare Carnot BP 278 61008 Alençon CEDEX,0.091266,48.432856,adapei.orne@adapei61.fr,"02 33 82 58 00, 02 33 26 63 55",,,,,,,,,,
Centre de Ressources Autisme Bourgogne,,"Coordonnateur : Fabien Joly, Responsable médicale : Dr Céline Henry","10 boulevard du Maréchal de Lattre de Tassigny (Unité régionale de diagnostic et d’évaluation, CHU du Bocage – école des cadres infirmiers – 2ème étage,) BP 77908 21077 Dijon",,,,"03 80 29 54 19, 03 80 29 53 10",,,,,,,,,,
MDPH Côte d’Or,,,1 rue Joseph Tissot (Cité départementale Henri Berger) BP 1601 21000 Dijon CEDEX,5.04148,47.322047,mdph@cg21.fr,800801090,,,,,,,,,,
SESSAD RESAM Autisme,,,2 rue Jean Sans Peur 21850 Saint-Apollinaire,,,sessad-ted@ugecam-bfc.cnamts.fr,"03 45 21 42 92, 03 80 66 76 48",,,,,,,,,,
SESSAD « Centre Aurore »,,,17 bis rue Jean XXIII 21000 Dijon,5.0926619,47.3365968,sessad@acodege.fr,380591638,,,,,,,,,,
Institut Médico-Éducatif La Pyramide,,,20 rue Saint Vincent de Paul 21000 Dijon,5.0650572,47.3327917,ime.pyramide@acodege.fr,380280008,,,,,,,,,,
IME Les Colibris,,,3 B rue Gilbert Bécaud 21800 Chevigny-Saint-Sauveur,4.994937,47.3025281,colibris@acodege.fr,380428413,,,,,,,,,,
FAM Résidence du Parc,,,2 rue du Lavoir 21700 Agencourt,5.1253664,47.2964896,,"03 80 61 05 47, 03 80 61 14 27",,,,,,,,,,
Respir Bourgogne,,Partenaire Autisme France,75D rue de Talant 21000 Dijon,4.974937499999999,47.1291863,contact@respir-bourgogne.fr,345214292,,,,,,,,,,
ADAPEI de la Nièvre,,,120 route de Beauregard (FEUILLES) 58130 Urzy,5.020408499999999,47.3292005,siege.nevers@adapei58.asso.fr,386930777,,,,,,,,,,
Autisme 58,,,76 Grande rue 58130 Guérigny,3.1872879,47.03703360000001,asso.autisme58@gmail.com,386373185,,,,,,,,,,
Centre de Ressources Autisme Bourgogne - Saône-et-Loire,,"Coordonnateur : Fabien Joly, Responsable médicale : Dr Céline Henry","55 rue Auguste Champion (Unité départementale de la Saône et Loire, CHS de Sevrey) 71331 Chalon sur Saône CEDEX",3.1924169,47.0843683,,385928398,,,,,,,,,,
Les TED’S,,Partenaire Autisme France,Route du Moulin (Chamottey) 71580 Saillenard,,,lesteds@batiex.fr,"03 84 24 02 42, 06 89 89 22 73",,,,,,,,,,
Autisme 71 – GEPAP,,,8 impasse Déesse Epona 71640 Saint-Martin-sous-Montaigu,5.3718029,46.7053932,,"03 85 45 23 05, 06 09 72 64 22",,,,,,,,,,
Réseau Bulle 71,,Entraide et solidarité pour les familles et les personnes concernées par l’autisme,71570 Chânes,4.714061099999999,46.8160041,association71@reseaubulle.fr,06 32 12 17 69 (Coralie),,,,,,,,,,
Centre de Ressources Autisme Bourgogne - Yonne,,"Coordonnateur : Fabien Joly, Responsable médicale : Dr Céline Henry","1 rue Girard de Cailleux (Unité départementale de l’Yonne, CHS) 89000 Auxerre",4.756907,46.251093,,"03 86 94 39 88, 03 86 72 12 32",,,,,,,,,,
Autisme et T.E.D. 89,,Partenaire Autisme France,8 rue des Sœurs 89580 Migé,3.573781,47.798202,,638604408,,,,,,,,,,
Sésame Autisme 89,,,14 rue Jean Jaurès 89190 Villeneuve-l’Archevêque,3.5437547,47.675593,sesame-autisme89@hotmail.fr,358150552,,,,,,,,,,
MDPH 22,,,3 rue Villiers de l’Isle Adam CS 50401 22194 Plérin CEDEX,3.5514874,48.2350954,mdph@mdph.cotesdarmor.fr,"0 800 11 55 28 (n° vert), 02 96 01 01 80",,,,,,,,,,
Autisme Ouest 22,,Partenaire Autisme France,Liffiac 22590 Trégomeur,,,autisme_ouest_22@orange.fr,296791528,,,,,,,,,,
Autisme Trégor Goëlo,,,24 chemin de Kerwégan (Servel) 22300 Lannion,-2.900048,48.562183,autisme_tregorgoelo@orange.fr,296546154,,,,,,,,,,
Mélodie,,,4 rue de Ker Nheli 22560 Trébeurden,-3.4950934,48.7441174,autisme.melodie@gmail.com,621040558,,,,,,,,,,
Autisme Breizh Autonomie,,,21 rue Bécôt 22500 Paimpol,-3.566092,48.769253,autisme.breizh.autonomie22@orange.fr,296551287,,,,,,,,,,
Centre de Ressources Autisme Bretagne,,Unité d’Appui et de Coordination,125 rue Jean Monnet (ZA Prat Pip Sud) 29490 Guipavas,-3.0525216,48.7787562,contact@cra.bzh,298894770,,,,,,,,,,
Autisme Fédération Bretagne Pays de la Loire,,,55 rue de la Vierge Noire 29600 Morlaix,-4.400707,48.435977,secretariat@afbpl.fr,787568640,,,,,,,,,,
Asperansa,,"Partenaire Autisme France, Alliance les 4A",10 rue Monge 29200 Brest,-3.8287444,48.5906139,asperansa@asperansa.org,689240304,,,,,,,,,,
MDPH du Finistère,,,1C rue Félix Le Dantec CS 52019 29018 Quimper CEDEX,-4.49038,48.38354229999999,contact@mdph29.fr,"02 98 90 50 50, 02 98 90 90 51",,,,,,,,,,
Autisme Cornouaille,,Partenaire Autisme France,40 rue du Ménez 29500 Ergué-Gabéric,,,autismecornouaille@orange.fr,"06 82 33 69 73, 06 66 77 02 97",,,,,,,,,,
Lud’Autisme,,,8 rue Traverse 29800 Landerneau,-4.0298606,48.0185987,,ludautisme@gmail.com,,,,,,,,,,
A.B.A. - Finistère,,,10 rue de Kérogan 29000 Quimper,-4.2522927,48.4511403,aba.finistere@orange.fr,964110375,,,,,,,,,,
MDPH 35,,,13 avenue de Cucillé CS 13103 35031 Rennes CEDEX,-4.0958299,47.9684004,contact@mdph35.fr,810011919,,,,,,,,,,
Autisme Côte d’Émeraude,,Partenaire Autisme France,57 rue du Dr Célestin Huet 35400 Saint-Malo,,,autisme.emeraude@free.fr,"02 99 81 96 58, 02 99 16 98 60",,,,,,,,,,
Autism’Aide 35,,,8 rue Gabriel Germain 35000 Rennes,-2.0079657,48.6229625,autismaide35@free.fr,636775587,,,,,,,,,,
Union Régionale Autisme France Bretagne,,,10 allée de Berne (chez M. Denis Hue) 35200 Rennes,-1.6936049,48.13192540000001,,Autisme France,,,,,,,,,,
Goanag,,Partenaire Autisme France,10 allée de Berne 35200 Rennes,-1.6654261,48.0906507,,299538881,,,,,,,,,,
Association s’Éveiller et Sourire,,,36 boulevard Albert 1er 35200 Rennes,-1.6654507,48.0857711,,Autisme France,,,,,,,,,,
TED Dit - Autisme Pays de Fougères,,Partenaire Autisme France,9 bis rue du Fresne 35460 Saint-Brice-en-Coglès,-1.6802292,48.0887848,famille.mellier@orange.fr,299978904,,,,,,,,,,
A.B.A. - Ille-et-Vilaine,,,81 boulevard Albert 1er 35200 Rennes,-1.3774898,48.4142237,aba.illeetvilaine.ca@gmail.com,652577902,,,,,,,,,,
Maison Départementale de l’Autonomie du Morbihan,,,16 rue Ella Maillart (parc d’activité de Laroiseau) 56000 Vannes,-1.6790529,48.0896192,contact@mda56.fr,297627474,,,,,,,,,,
Je TED à Aller à l’École,,,Place Penvern (Maison des Associations) 56600 Lanester,-2.7890768,47.6714134,tedecole@yahoo.com,684029567,,,,,,,,,,
Antenne Asperansa Lorient,,,5 rue Jacques Brel 56100 Lorient,-3.347354,47.76349399999999,antenne_asperansa.lorient@yahoo.fr,297655994,,,,,,,,,,
"Papa, Maman et Moi contre l’Autisme",,,31 rue Guillaume Le Bartz (Maison des Associations) 56000 Vannes,-3.3863992,47.757593,pmmca56@gmail.com,789922507,,,,,,,,,,
Autisme Écoute et Partage,,Partenaire Autisme France,13 rue du 19ème dragon 56520 Guidel,-2.760847,47.658236,,"02 97 65 39 55, 06 66 13 83 43",,,,,,,,,,
Dialogue-Autisme,,,undefined,-3.4904349,47.78435750000001,dialogueautisme@orange.fr,623131583,,,,,,,,,,
Sésame Autisme Cher,,,10 rue de Sarrebourg 18000 Bourges,-104.7956055,39.9129412,"sesame.autisme.cher@wanadoo.fr,, directeur@sesame-autisme-cher.org",678036267,,,,,,,,,,
MDPH Eure-et-Loir,,,57 bis rue du Docteur-Maunoury 28000 Chartres,2.4039771,47.0800427,contact@mdph28.fr,0 800 82 83 28 (n° vert),,,,,,,,,,
Autisme 28,,Présidente Martine Vandermeersch,4 rue Antoine de St-Exupéry 28300 Lèves,1.4820632,48.4396036,,"02 37 36 35 36, 06 79 27 20 52",,,,,,,,,,
FAM La Chanterelle,,Géré par Autisme 28,4 rue Antoine de St-Exupéry 28300 Lèves,1.473056,48.4677655,chanterelle.28@wanadoo.fr,"02 37 84 13 20, 02 37 84 13 29",,,,,,,,,,
MDPH Indre,,,"4 rue Eugène Rolland (Centre Colbert, bâtiment E) BP 627 36020 Châteauroux CEDEX",1.473056,48.4677655,mdph36@mdph36.fr,"02 54 35 24 24, 02 54 35 24 29",,,,,,,,,,
Pas à pas Indre,,,Route de Velles (Blanche-de-Fontarce) 36000 Châteauroux,,,,254363328,,,,,,,,,,
Centre de Ressources Autisme Centre,,Coordonnateur : Pr. Catherine Barthélémy,2 boulevard Tonnellé (CHRU Bretonneau) 37044 Tours CEDEX 9,1.686779,46.811434,,"02 47 47 86 46, 02 18 37 05 46, 02 47 47 87 70",,,,,,,,,,
MDPH Indre-et-Loire,,,19 rue Édouard Vaillant CS 14233 37042 Tours CEDEX 1,,,info@mdph37.fr,247752666,,,,,,,,,,
Sésame Autisme 37,,,62 rue Jolivet 37000 Tours,,,apn_sa37@club-internet.fr,247329168,,,,,,,,,,
AMDR « Les Maisonnées »,,Membre de Autisme Centre et de Sésame Autisme,59 avenue de la Gare 37190 Azay-le-Rideau,0.7053883000000001,47.3904837,maisonnees.azay@wanadoo.fr,247452470,,,,,,,,,,
ARAPI,,,BP 1603 37016 Tours CEDEX 1,0.4509115,47.2641836,contact@arapi-autisme.fr,"02 47 35 92 78, 02 47 35 92 78",,,,,,,,,,
Association Vivre Autrement l’Autisme,,,Place des Droits de l’Homme (La Maison pour Tous) 37300 Joué-lès-Tours,,,,247502910,,,,,,,,,,
MDPH Loir-et-Cher,,,"34 avenue Maunoury (Cité administrative, porte D) 41000 Blois",0.6613099,47.351861,accueil-mdph@cg41.fr,0 800 77 77 41 (n° vert),,,,,,,,,,
Sésame Autisme Loir-et-Cher,,,12 rue du Docteur Eugène Richard 41800 Montoire-sur-le-Loir,1.3359475,47.58609209999999,,254864400,,,,,,,,,,
SESSAD Dialogue Autisme,,Partenaire Autisme France,641 avenue du Grain d’Or 41350 Vineuil,0.8834468,47.7615068,,254877878,,,,,,,,,,
MDPH Loiret,,,131 rue du Faubourg Bannier (Cité administrative Coligny - Bât. C1 / 3ème étage) 45042 Orléans CEDEX 1,1.3773628,47.5647763,contact@mdph45.fr,238254040,,,,,,,,,,
Dialogue Autisme,,Partenaire Autisme France,BP 248 45162 Olivet CEDEX,,,dialogue-autisme@voila.fr,623131583,,,,,,,,,,
MDPH Ardennes,,,55 avenue Charles de Gaulle 08000 Charleville-Mézières,,,courrier@mdph08.fr,"03 24 41 39 50, 03 24 41 39 76",,,,,,,,,,
Ensemble pour Aurélien & Jason,,,7 bis rue du Général de Gaulle 08230 Bourg-Fidèle,4.7155405,49.7681803,ensembleaurelienetjason@gmail.com,630518633,,,,,,,,,,
ADAPEI 08,,"Commission Autisme de l’Adapei 08, Collectif Autisme (région Champagne-Ardenne)",2 bis - 4 boulevard Gambetta 08000 Charleville-Mézières,4.51807,49.9229676,a.d.a.p.e.iardennes@gmail.com,324396791,,,,,,,,,,
MDPH Aube,,,BP 770 10026 Troyes CEDEX,4.7189195,49.770785,mdph@cg10.fr,"03 25 42 65 70, 03 25 42 65 73",,,,,,,,,,
Autisme Aube,,"Partenaire Autisme France, Collectif Autisme (région Champagne-Ardenne)",80 avenue Pasteur 10000 Troyes,,,,668001811,,,,,,,,,,
SESSAD Aubtimisme,,Partenaire Autisme France,80 avenue Pasteur 10000 Troyes,4.0643079,48.3016383,,325790012,,,,,,,,,,
Réseau Bulle 10,,Entraide et solidarité pour les familles et les personnes concernées par l’autisme,10350 Marigny-le-Châtel,4.0643079,48.3016383,association10@reseaubulle.fr,06 16 17 14 57 (Céline),,,,,,,,,,
Autisme Marne,,,36 rue René Franquet 51000 Reims,3.736339,48.402907,autisme-marne@orange.fr,"03 26 86 42 30, 06 81 35 34 51",,,,,,,,,,
Centre de Ressources Autisme Champagne-Ardenne,,"Coordonnatrice : Dr Nathalie Golovkine, Horaires : le jeudi de 9h à 18h pour les bilans","Avenue du Général Kœnig (Diagnostic & Évaluation, Service de Psychothérapie de l’Enfant et de l’Adolescent – Hôpital Robert Debré) 51092 Reims CEDEX",4.0218316,49.2076697,,"03 26 78 39 67, 03 26 78 39 67",,,,,,,,,,
CREAI Champagne-Ardenne,,Directeur : M. Thibault Marmont,51036 Châlons-en-Champagne CEDEX,,,cra.ca.infodoc@wanadoo.fr,"03 26 68 35 71, 03 26 68 53 85",,,,,,,,,,
MDPH Marne,,,50 avenue du Général Patton (Centre d’affaires Patton - Entrée A) 51000 Châlons-en-Champagne,-96.17391160000001,42.9503143,accueil@mdph51.fr,326215770,,,,,,,,,,
APIPA-Asperger-TSA,,"Partenaire Autisme France, Alliance les 4A, Collectif Autisme (région Champagne-Ardenne)",6 Grande Rue 51500 Puisieulx,4.363073,48.956682,apipa.aspergerted@orange.fr,326491305,,,,,,,,,,
Autisme Marne,,"Partenaire Autisme France, Collectif Autisme (région Champagne-Ardenne)",36 rue du Professeur René Franquet 51100 Reims,4.1111457,49.1938798,,326864230,,,,,,,,,,
Les Papillons Blancs de Reims,,"Collectif Autisme (région Champagne-Ardenne), Affiliée UNAPEI, Association de Parents, de Personnes Handicapées Mentales et de leurs Amis",6 rue Gabriel Voisin 51100 Reims,4.0218316,49.2076697,secretariat@papillonsblancs-reims.org,"03 26 06 57 05, 03 26 24 46 67",,,,,,,,,,
ACPEI,,"Partenaire Autisme France, Collectif Autisme (région Champagne-Ardenne)",43 avenue Jeanne d’Arc BP 72 51017 Châlons-en-Champagne,4.0688936,49.2349366,,326218021,,,,,,,,,,
MDPH Haute-Marne,,,4 cours Marcel Baron BP 42021 52901 Chaumont CEDEX 9,4.363073,48.956682,mdph@haute-marne.fr,325011951,,,,,,,,,,
Autisme Un pas vers l’avenir,,,1 place de l’Abbé Cordier 52200 Langres,,,,780455710,,,,,,,,,,
Chrysalide 52,,"Association de personnes autistes, Président : Michel HANON",5 rue Martin 52300 Donjeux,5.3351459,47.8649612,hanon.michel0647@orange.fr,325052403,,,,,,,,,,
Centre de Ressources Autisme - Corse-du-Sud,,Horaires : le jeudi de 8h00 à 11h30 et de 13h à 16h30 – Le vendredi de 8h00 à 11h30,4 avenue du Maréchal Juin (Pôle d’Ajaccio (Corse-du-Sud) IME des Salines) 20090 Ajaccio,5.155948299999999,48.3645649,,495565850,,,,,,,,,,
TED et les Autres,,Partenaire Autisme France,Chemin des Vignes (Ghjunchiccia) 20167 Afa,8.7205877,41.9393447,,"04 95 21 70 03, 06 75 19 63 31",,,,,,,,,,
Association Bulle d’Espoir,,,La Crucciata 20166 Pietrosella,8.796828,41.983884,,associationbulledespoir@gmail.com,,,,,,,,,,
Centre de Ressources Autisme - Haute-Corse,,Horaires : lundi et mardi de 8h30 à 12h00 – Jeudi de 14h00 à 17h00,3 rue Victor Hugo (Pôle de Bastia (Haute-Corse) Villa Marie) 20600 Bastia,8.7823429,41.843836,,495565850,,,,,,,,,,
Espoir Autisme Corse,,Partenaire Autisme France,Résidence la Citadelle (Lieu-dit Badello) 20250 Corte,9.450880999999999,42.697283,,495463139,,,,,,,,,,
Centre de Ressources Autisme Franche-Comté,,"Coordonnateurs : Dr Géraldine Ropers, Pr Sylvie Nezelof",2 place Saint-Jacques (CHU Saint-Jacques – Service de psychiatrie infanto-juvénile) 25030 Besançon CEDEX,9.149022,42.309409,,"03 81 21 82 44, 03 81 21 82 62",,,,,,,,,,
CIRRUS,,Partenaire Autisme France,6 chemin des Taraux (M. Aubert Rémy) 25160 Les Grangettes,,,,381696262,,,,,,,,,,
Autisme Jura,,Partenaire Autisme France,21 rue Étienne Lamy 39300 Cize,6.311105,46.827915,,384526489,,,,,,,,,,
Autisme 70,,,Place Sentupéry 70100 Arc-lès-Gray,5.916928299999999,46.726065,,undefined,,,,,,,,,,
Autisme 90,,Partenaire Autisme France,51/53 rue de Mulhouse (c/o UDAF) 90012 Belfort CEDEX,5.584124,47.456876,,384267901,,,,,,,,,,
Asperger Accueil,,"Partenaire Autisme France, Alliance les 4A",1 rue Fellini 27000 Évreux,,,aspergeraccueil@yahoo.fr,674285093,,,,,,,,,,
Association Marie-Hélène,,Plusieurs établissements répartis dans l’Eure,12 boulevard Jules Janin 27000 Évreux,1.1366571,49.0398471,homes-siege@wanadoo.fr,"02 32 62 93 50, 02 32 62 93 51",,,,,,,,,,
Les Blés en Herbe,,Partenaire Autisme France,7 Grande Rue 27370 Saint-Ouen-de-Pontcheuil,1.156727,49.0254545,,683794513,,,,,,,,,,
Les Rêves de Louis,,Partenaire Autisme France,8 rue Philippe Bréant (Maison des Associations) 27300 Bernay,0.9523240000000001,49.235314,,232440031,,,,,,,,,,
Centre de Ressources Autisme Haute-Normandie,,,4 rue Paul Éluard (Centre Hospitalier du Rouvray) BP 45 76301 Sotteville-lès-Rouen,0.597811,49.08932799999999,,"02 32 95 18 64, 02 32 95 18 65",,,,,,,,,,
A.D.I.S.P.A.,,,177 allée du Château 76190 Hautot-le-Vatois,1.095407,49.41725,adispa@free.fr,"02 35 95 20 49, 06 23 07 07 58",,,,,,,,,,
"Autisme, un autre monde",,,1607 hameau de Peromare 76170 Touffreville-la-Cable,0.7079244,49.6454515,oangelheart@aol.com,232843368,,,,,,,,,,
Réseau Bulle 76,,Entraide et solidarité pour les familles et les personnes concernées par l’autisme,76890 Saint-Victor-l’Abbaye,0.601878,49.51530899999999,association76@reseaubulle.fr,06 83 99 30 17 (Lise),,,,,,,,,,
Kytanlou,,,Rue Jules Cantais (Maison des Associations) 76170 La Trinité-du-Mont,1.120719,49.674594,kytanlou@neuf.fr,629283592,,,,,,,,,,
Centre de Ressources Autisme Île-de-France,,,27 rue de Rambouillet 75012 Paris,0.55472,49.5430599,contact@craif.org,"01 49 28 54 20, 01 49 28 54 21",,,,,,,,,,
MDPH Paris,,,69 rue de la Victoire 75009 Paris,2.3817858,48.8445523,contact@mdph.paris.fr,"08 05 80 09 09 (n° vert), 01 53 32 37 22",,,,,,,,,,
Hopital Robert Debré,,Service de Psychiatrie de l’Enfant et de l’Adolescent (jusu’à 15 ans),48 boulevard Sérurier (Hopital Robert Debré) 75019 Paris,2.3333642,48.8751167,,140032000,,,,,,,,,,
Centre Referent de Diagnostic d’Autisme,,Service de Psychiatrie de l’Enfant et de l’Adolescent,47-83 boulevard de l’hôpital (Groupe Hospitalier Pitié-Salpétrière) 75013 Paris,2.3867083,48.89061359999999,amina.djebbar@psl.aphp.fr,"01 42 16 23 33, 01 42 16 23 31",,,,,,,,,,
Centre de Recherche et de Diagnostic Autisme et Trouble Apparentés (CREDAT),,"Service de Psychopathologies de l’Enfant et de l’Adolescent, Docteur Gilles Martinez",1 rue Cabanis (Centre Hospitalier Sainte-Anne) 75014 Paris,0.2944788,44.4579939,,"01 45 65 83 37, 01 45 65 80 61",,,,,,,,,,
Centre Diagnostic et d’Évaluation Autisme Adulte (CDEAA),,Service de Psychiatrie pour Adulte,47-83 boulevard de l’Hôpital (Groupe Hospitalier Pitié-Salpétrière) 75013 Paris,2.3255684,48.8314408,,142162809,,,,,,,,,,
"Agir et Vivre l’Autisme, et de l’École pilote A.B.A. de Paris",,,67 rue Archereau 75019 Paris,0.2944788,44.4579939,,undefined,,,,,,,,,,
Autisme 75,,,78 rue du Dessous-des-Berges 75000 Paris,2.3759277,48.8931131,a75.siege@autisme75.org,"01 45 84 29 59, 01 45 85 23 12",,,,,,,,,,
La Vie en Bleu,,,8 rue Chevreul 75011 Paris,2.3728701,48.8288688,sarah@lavieenbleu.org,954893100,,,,,,,,,,
TouPI,,,120 boulevard Magenta 75010 Paris,2.3922131,48.8495572,toupi@outlook.fr,781824562,,,,,,,,,,
AFG Autisme,,Association Française de Gestion de services et établissements pour personnes autistes,11 rue de la Vistule 75013 Paris,2.3537371,48.8794127,afg@afg-autisme.com,"01 42 73 35 20, 09 75 24 37 88, 01 40 56 98 12",,,,,,,,,,
Autistes sans frontières,,,92 avenue Niel 75017 Paris,2.3607494,48.8231105,,"01 46 22 18 16, 01 46 22 18 16",,,,,,,,,,
PRO Aid Autisme,,,19 rue des Martyrs 75009 Paris,2.29727,48.8837712,,"01 45 41 52 93, 01 45 41 52 93",,,,,,,,,,
Fédération française Sésame Autisme,,,53 rue Clisson 75013 Paris,2.3393873,48.8780637,,144245000,,,,,,,,,,
SOS Autisme France,,,156 boulevard Pereire 75017 Paris,2.3662503,48.8308045,,undefined,,,,,,,,,,
Sur les Bancs de l’École,,Partenaire Autisme France,12 bis rue Léon Delhomme 75015 Paris,2.293165,48.8831572,,156230044,,,,,,,,,,
UNAFAM (Union nationale des amis et familles de malades psychiques),,,12 villa Compoint 75017 Paris,2.3005666,48.83782650000001,,"01 53 06 30 43, 01 42 63 03 03 (n° d’écoute), 01 42 63 44 00",,,,,,,,,,
UNAPEI (Union nationale des associations de parents et amis de personnes handicapées mentales),,,15 rue Coysevox 75876 Paris CEDEX 18,2.3242377,48.8918572,,"01 44 85 50 50, 01 44 85 50 60",,,,,,,,,,
Vaincre L’Autisme,,,51 rue Servan 75011 Paris,,,,"01 47 00 47 83, 01 43 73 64 49",,,,,,,,,,
ARIA,,Partenaire Autisme France,24 bis rue des Plantes 75014 Paris,2.3815454,48.862341,,"01 45 41 38 88, 06 60 18 34 07",,,,,,,,,,
ASAP,,Partenaire Autisme France,21 rue du Faubourg Saint-Antoine 75011 Paris,2.3237281,48.8309136,lespetitesvictoires-asap@wanadoo.fr,145089318,,,,,,,,,,
Autisme Avenir,,Partenaire Autisme France,"96 bis rue Didot (Hôpital Broussais - Pavillon Leriche, porte 11) 75014 Paris CEDEX",2.3713757,48.85278419999999,,143471970,,,,,,,,,,
IME Les Petites Victoires,,Partenaire Autisme France,21 rue du Faubourg Saint-Antoine 75011 Paris,,,,"01 45 08 93 18, 01 45 08 92 32",,,,,,,,,,
Plate-Forme Passage,,Partenaire Autisme France,63 boulevard Lefebvre 75015 Paris,2.3713757,48.85278419999999,,143068803,,,,,,,,,,
ASF 75 – Vivement l’école,,Réseau Autistes Sans Frontières,92 avenue Niel 75017 Paris,2.2929589,48.8310421,"delphine.piloquet@wanadoo.fr,, vivementlecole@wanadoo.fr",668009000,,,,,,,,,,
LFDDE,,,75 rue de Lourmel 75015 Paris,2.29727,48.8837712,,undefined,,,,,,,,,,
AFPSSU,,,242 boulevard Voltaire 75011 Paris,2.2880413,48.8454737,,607992692,,,,,,,,,,
MDPH Seine-et-Marne,,,16 rue de l’Aluminium 77176 Savigny-le-Temple,2.3905264,48.8513366,contact@mdph77.fr,"01 64 19 11 40, 01 64 19 11 43",,,,,,,,,,
Clin d’œil Handicap,,,1 hameau de la Jarrie 77750 Bussières,2.5874789,48.5945022,,664865284,,,,,,,,,,
Un Espoir pour Enzo,,,11 grande Allée des Charmilles 77185 Lognes,3.236036,48.922525,,632763605,,,,,,,,,,
UNI-TEDS,,gestionnaire du SACS Uni-teds,154 avenue Henri-Barbusse 77190 Dammarie-les-Lys,2.635433,48.8350309,secretariat@uni-teds.fr,160635647,,,,,,,,,,
Association Départementale des Parents et Amis de Personnes Handicapées Mentales de Seine-et-Marne (Adapei 77),,,2 ter rue René Cassin (Hall B) 77000 Melun,2.6332982,48.5135357,adapei77@wanadoo.fr,"01 60 56 54 71, 01 60 56 54 72",,,,,,,,,,
AURA 77 - Réseau de santé,,,8 mail Barthélémy Thimmonier 77185 Lognes,2.6727401,48.551202,,160364545,,,,,,,,,,
Tedi 77,,Réseau Autistes Sans Frontières,8 rue des Louvières 77130 Saint-Germain-Laval,2.6296685,48.83916259999999,,astedi77@orange.fr,,,,,,,,,,
ASDAA - Association pour Sortir Divya et ses Amis de l’Autisme,,,48 rue du Bois de Nanteau 77150 Lésigny,2.9816822,48.414277,,"09 50 19 20 05, 06 34 07 06 66",,,,,,,,,,
ISTED - Intégration scolaire et troubles envahissants du développement,,,77260 La Ferté-sous-Jouarre,2.6027708,48.7326048,rioulab@wanadoo.fr,164205644,,,,,,,,,,
AIME 77 - Autisme Intégration par Méthodes Éducatives,,,91 avenue André Malraux 77600 Bussy-Saint-Georges,3.130059,48.95050699999999,"aime77@orange,fr","06 22 90 85 53, 06 63 09 20 35",,,,,,,,,,
Association des parents et amis d’enfants inadaptés de la Brie (APAEI),,,6 rue Georges Bizet 77380 Combs la Ville,2.7223373,48.8420388,apaeibrie@wanadoo.fr,160601820,,,,,,,,,,
DISJETED,,"« Dispositif d’Intervention et de Soins pour Jeunes Enfants porteurs de Troubles Envahissants du Développement », Structure d’accueil pour enfants autistes",28 avenue de Verdun 77290 Mitry-Mory,2.5665955,48.6537493,disjeted@aede.fr,"06 23 80 85 56, 06 35 36 13 94",,,,,,,,,,
Les Récrés Éducatives,,,4 rue ambroise Paré 77430 Champagne-sur-Seine,2.5986905,48.9552405,recres.educatives@free.fr,"06 65 35 67 36, 06 33 18 17 35",,,,,,,,,,
Pas à pas,,Réseau Autistes Sans Frontières,28 rue Victor Hugo 77250 Veneux-les-Sablons,2.8106614,48.39491109999999,pasapas77sud@gmail.com,663603939,,,,,,,,,,
MDPH Yvelines,,,9 rue de la Patte d’Oie 78000 Versailles,2.788015,48.3870286,contact@mdph.yvelines.fr,"01 39 07 55 60, 01 39 07 55 87",,,,,,,,,,
Unité ATED (Adultes avec Troubles Envahissants du Développement),,,30 rue Marc Laurent (C.H. Jean-Martin Charcot) BP 20 78375 Plaisir CEDEX,2.1426292,48.79641090000001,secretariat-ated@ch-charcot78.fr,"01 30 81 88 10, 01 30 81 85 66",,,,,,,,,,
ACANTHE,,,38 orée de Marly 78590 Noisy-le-Roi,,,,134629238,,,,,,,,,,
ADAPTED,,,22 rue Francisco Ferrer 78240 Saint-Cyr-l’École,2.0698649,48.84281319999999,,secretariat@adapted.fr,,,,,,,,,,
AIDERA Yvelines,,,3 rue des Neréides 78180 Montigny le Bretonneux,2.0723541,48.7968045,contact@aiderayvelines.org,130430689,,,,,,,,,,
Tous à l’École,,Réseau Autistes Sans Frontières,22 rue de des Boers 78800 Houilles,2.0276214,48.7683807,"benoit.fosse@cegetel.net,, richard.pandevant@banquedorsay.fr","01 30 21 49 78, 01 30 21 49 78",,,,,,,,,,
Tous à l’École,,Partenaire Autisme France,6 allée des Bièvres (Résidence de l’Étang) 78800 Versailles,2.1880391,48.9174218,tousalecole@laposte.net,"01 30 21 49 78, 06 73 60 43 26",,,,,,,,,,
Autisme en Yvelines,,,2 bis rue Francisco Ferrer 78201 Saint-Cyr-l’École,2.130122,48.801408,,Autisme France,,,,,,,,,,
MDPH Essonne,,,93 rue Henri Rochefort 91000 Évry,2.0729893,48.7980331,,mdphe@cg91.fr,,,,,,,,,,
AIDERA Essonne,,Partenaire Autisme France,5 - 7 rue Lavoisier 91540 Mennecy,2.4360417,48.6244789,aidera.essonne@free.fr,169039012,,,,,,,,,,
ECOLALIES,,Partenaire Autisme France,6 chemin des Cendriers 91450 Étiolles,2.4448666,48.5649189,ecolalies@yahoo.fr,"01 69 89 00 32, 06 72 91 18 03",,,,,,,,,,
Sur le Chemin des Écoliers,,Partenaire Autisme France,3 allée des Monégasques 91300 Massy,2.4715007,48.6310029,,"06 86 72 71 96, 09 50 63 28 01",,,,,,,,,,
Autisme 91,,,3 avenue de Rigny 91130 Ris-Orangis,2.2867104,48.7334543,carlaa2@wanadoo.fr,"01 69 06 93 57, 01 69 06 93 57",,,,,,,,,,
Combattre l’Autisme Aujourd’hui,,Partenaire Autisme France,2 rue A. Revenaz 91000 Évry,2.4050488,48.658398,caa91@wanadoo.fr,160783173,,,,,,,,,,
La Chalouette – Autisme Essonne,,,78 bis rue de Valorge 91220 Brétigny-sur-Orge,2.4331592,48.6431423,chalouette.autisme@wanadoo.fr,"01 69 88 43 62, 01 64 56 04 32, 01 69 88 43 79",,,,,,,,,,
SAUGE (Solidarité AUtisme GEstion),,Partenaire Autisme France,8 allée des Coudraies 91190 Gif-sur-Yvette,2.2812554,48.6150697,clairechstenet@aol.fr,169078278,,,,,,,,,,
F.A.M. La Lendemaine,,Contact aussi via association SAUGE,Rue des Fonds d’Armenon 91470 Les Molières,2.1423555,48.6952696,accueil@la-lendemaine.fr,169922405,,,,,,,,,,
MDPH Hauts-de-Seine,,,2 rue Rigault 92000 Nanterre,2.0795562,48.6595748,mdph@mdph92.fr,"01 41 91 92 50, 01 41 91 93 09",,,,,,,,,,
Appedia,,Partenaire Autisme France,2 rue Paul Gauguin (La Butte Rouge) 92290 Châtenay-Malabry,2.197775,48.89476,,"01 46 30 39 04, 01 46 01 09 84",,,,,,,,,,
Les Premières Classes,,Réseau Autistes Sans Frontières,53 rue d’Arthelon 92190 Meudon,2.270748,48.771896,,gerhards.tribu@wanadoo.fr,,,,,,,,,,
Association Perce-Neige,,,102 bis boulevard Saint-Denis 92415 Courbevoie CEDEX,2.2390003,48.802559,,147171930,,,,,,,,,,
Mosaïques X Fragile,,Partenaire Autisme France,28 avenue Gambetta 92270 Bois-Colombes,,,,147602499,,,,,,,,,,
AEVE (Autisme Espoir Vers l’École),,Méthode des 3i,35 rue Émile Landrin 92100 Boulogne-Billancourt,2.2628194,48.9180779,,820997634,,,,,,,,,,
Autisme 93,,"Partenaire Autisme France, Association pour l’Avenir des Adultes",7 rue Jules Verne 93100 Montreuil,2.2460272,48.8358235,,"01 42 87 21 67, 07 81 29 64 68",,,,,,,,,,
MDPH Créteil,,,7 - 9 voie Félix Eboué (Bâtiment Solidarités) 94046 Créteil CEDEX,2.4594413,48.8713503,mdph94@cg94.fr,143997900,,,,,,,,,,
Centre Expert Asperger Albert Chenevier,,"Service du Prof. Marion Leboyer, Equipe 15 Psychiatrie génétique",40 rue de Mesly (Hôpital Albert Chenevier) 94010 Créteil CEDEX,,,creteil.psy@ach.aphp.fr,"01 49 81 32 90, 01 49 81 33 90",,,,,,,,,,
SAMSAH de la Pointe du Lac,,,67 avenue Magellan 94000 Créteil,,,samsahpointedulac@apogei94.net,"01 41 94 80 60, 01 58 43 01 86",,,,,,,,,,
FAM de la Pointe du Lac,,,67 avenue Magellan 94000 Créteil,2.4532174,48.7686857,famdelapointedulac@apogei94.net,"01 41 94 80 60, 01 58 43 01 86",,,,,,,,,,
Envol Marne-la-Vallée,,Partenaire Autisme France,3 chemin de la Croix 94500 Champigny-sur-Marne,2.4532174,48.7686857,envolmarnelavallee@live.fr,141771953,,,,,,,,,,
Asperger Aide,,,23 rue de Paris 94340 Joinville-le-Pont,2.5185379,48.8151911,aspergeraidefrance@yahoo.fr,683503574,,,,,,,,,,
L’École pour tous,,Réseau Autistes Sans Frontières,6 rue Gérard de Nerval 94450 Limeil-Brévannes,2.4670834,48.8182577,michael@gnjsupply.com,145692286,,,,,,,,,,
École de Ted et ses Amis,,École pour les enfants du 94 atteins de plutihandicap dont TED Autisme,35 bis boulevard de la Marne 94100 Saint-Maur-des-Fossés,2.4931859,48.7552173,contact@ecoledetedetsesamis.fr,610615559,,,,,,,,,,
Espoir Autisme 94,,Écoles pour enfants autistes,9 allée Verte 94440 Villecresnes,2.4925322,48.7891552,tinabento.blmtp@gmail.com,661619934,,,,,,,,,,
APEI 94 - Ariane,,Partenaire Autisme France,96 avenue Victor Hugo 94100 Saint-Maur-des-Fossés,2.5170584,48.7311723,ariane@apei94.org,"01 48 85 51 64, 01 42 83 60 28",,,,,,,,,,
MDPH du Val d’Oise,,,2 avenue du Parc CS 20201 Cergy (Conseil général du Val d’Oise) 95032 Cergy-Pontoise CEDEX,2.4893941,48.80298149999999,maisonduhandicap@valdoise.fr,134251650,,,,,,,,,,
Autisme Ensemble 95,,,3 rue Pierre de Coubertin (Groupe scolaire Jules Verne) 95300 Pontoise,,,,contact@autismeensemble95.com,,,,,,,,,,
Écoute Parents Enfants Autistes,,,13 rue de Montigny 95240 Cormeilles-en-Parisis,2.100645,49.050966,,"01 39 31 71 22, 06 61 98 75 97",,,,,,,,,,
Entraide Autisme en Val-d’Oise (EVAO),,,20 rue de Montmorency 95350 Saint-Brice-sous-Forêt,2.1943353,48.9785777,frederiquejeanne.besson@sfr.fr,"01 39 94 21 09, 06 12 14 74 77",,,,,,,,,,
La Garenne du Val,,,Allée de la Clairière 95630 Mériel,2.3538429,48.9988253,lgv.mariette.chapus@wanadoo.fr,"01 34 48 15 60, 01 43 99 27 56",,,,,,,,,,
AVEA - Autisme Vivons Ensemble dans L’AUDE,,Partenaire Autisme France,19 bis rue Montségur 11150 Bram,2.214919,49.07217,,468765262,,,,,,,,,,
Réseau HandiLib’30,,,8 allée Serge Loiseau 30000 Nîmes,2.1142937,43.2361157,reseauhandilib30@gmail.com,610637340,,,,,,,,,,
Autisme Gard,,,53 bis rue de la biche 30000 Nîmes,4.3992904,43.8524032,autisme30@live.fr,466760774,,,,,,,,,,
Evan-Dys,,,13 chemin Fouquet 30200 Bagnols-sur-Cèze,4.3662198,43.8465346,,undefined,,,,,,,,,,
Centre de Ressources Autisme Languedoc-Roussillon,,,291 avenue du Doyen Giraud (SMPEA Peyre Plantade - CHRU de Montpellier) 34295 Montpellier CEDEX 5,4.616084799999999,44.1492261,"contact.ancra@gmail.com,, cent-ress-autisme@chu-montpellier.fr","04 67 33 99 68, 04 67 33 08 32",,,,,,,,,,
Sortir De Ma Bulle,,,27 rue Alfred de Vigny 34920 Le Crès,,,,contact@sortirdemabulle.fr,,,,,,,,,,
Union Régionale Autisme France Languedoc-Roussillon,,,"89 avenue Louisville (Res. Lesurville - bât. 1, esc. 6) 34080 Montpellier",3.9441512,43.6584436,,Autisme France,,,,,,,,,,
Autiste et Écolier 34,,Partenaire Autisme France,385 avenue des Frères Bühler 34000 Montpellier,3.8299106,43.6167208,,"06 78 52 54 77, 06 21 32 78 13",,,,,,,,,,
Solidarité Autisme LR,,,125 rue Nigel Burgess 34500 Béziers,3.834277,43.6302908,solidariteautisme@gmail.com,695222029,,,,,,,,,,
L’Étoile d’Asperger,,,11 rue du Calciné 66150 Arles-sur-Tech,3.2072435,43.3622743,letoiledasperger@hotmail.fr,679652409,,,,,,,,,,
Autisme 66 Esperanza,,Partenaire Autisme France,8 rue François Arago 66450 Pollestres,2.6494482,42.46568120000001,,468737084,,,,,,,,,,
Soleil Corrézien Autisme et TED,,,Bas Roche 19350 Juillac,2.8644838,42.6383117,soleil.correzien@orange.fr,555255407,,,,,,,,,,
Autisme 23,,Partenaire Autisme France,La Rue Haute (Mme Rivière) 23000 La Chapelle-Taillefert,1.3879243,45.2727397,,555816047,,,,,,,,,,
Réseau Bulle 23,,Entraide et solidarité pour les familles et les personnes concernées par l’autisme,23700 Mainsat,1.838172,46.1000439,association23@reseaubulle.fr,07 77 05 10 09 (Marie-Christine),,,,,,,,,,
Centre Régional de Diagnostic et de Ressources sur l’Autisme du Limousin (C.R.D.R.A.L),,Coordonnatrice : Nathalie Etienne,6 rue du Buisson 87170 Isle,2.3865759,46.05257899999999,,"05 55 01 78 67, 05 55 01 78 69",,,,,,,,,,
Pôle Diagnostic et Évaluation,,,6 rue du Buisson (Site du CREAIL) 87170 Isle,1.2308645,45.8123487,,"05 55 01 78 67, 05 55 01 78 69",,,,,,,,,,
Autisme 87,,Partenaire Autisme France,42 avenue de la Révolution 87000 Limoges,1.226734,45.805176,,629143665,,,,,,,,,,
Réseau Bulle 87,,Entraide et solidarité pour les familles et les personnes concernées par l’autisme,87800 Nexon,1.2605096,45.8238273,association87@reseaubulle.fr,06 51 08 47 72 (Marjorie),,,,,,,,,,
EMAAF Limousin,,,53 avenue de la Révolution 87000 Limoges,1.188746,45.676317,docteur.mace@laposte.net,555312074,,,,,,,,,,
Centre de Ressources Autisme Lorraine,,Coordonnateur : Jean-Luc Fabry,1 rue du Docteur Archambault (Centre Psychothérapique de Nancy) BP 11010 54521 Laxou CEDEX,1.2590933,45.8244745,ressourcesautisme@cpn-laxou.com,"03 83 92 66 76, 03 83 92 66 79",,,,,,,,,,
SESSAD Vivre avec l’Autisme,,Partenaire Autisme France,54220 Malzéville,,,,483961286,,,,,,,,,,
FAM Les Charmilles,,Partenaire Autisme France,54220 Malzéville,6.183463,48.708323,,583961286,,,,,,,,,,
Vivre avec L’Autisme en Meurthe-et-Moselle,,Partenaire Autisme France,54220 Malzéville,6.183463,48.708323,,383961286,,,,,,,,,,
Asperger Lorraine,,Partenaire Alliance les 4A,55 rue Anne Fériet (chez Mme Corinne Krux) 54000 Nancy,6.183463,48.708323,,contact@aspergerlorraine.fr,,,,,,,,,,
MDPH Moselle,,,"1 rue Claude Chappe (Europlaza, Bâtiment D, entrée D3) CS 95 213 57076 Metz CEDEX 03",6.184417,48.692054,mdph@moselle.fr,"03 87 21 83 00, 03 87 21 83 39",,,,,,,,,,
Envol Lorraine,,Partenaire Autisme France,6 petit Vésinet 57690 Créhange,,,,"03 87 94 39 15, 03 87 94 39 15",,,,,,,,,,
Autisme Vosges,,Partenaire Autisme France,55 route du Beillard 88400 Liézey,6.5884466,49.07420430000001,,329259654,,,,,,,,,,
Autisme Ariège,,"Partenaire Autisme France, Membre URAF-MPy",4 place du Sémalié 09100 Saint-Jean-du-Falga,6.7765713,48.0888483,autismariege@gmail.com,561692921,,,,,,,,,,
Centre Évaluation Autisme et autres TED,,Equipe associée d’évaluation enfants de l’Aveyron,22 rue du Général Viala 12000 Rodez,1.6275449,43.0877827,,"05 65 55 16 35, 05 65 55 16 29",,,,,,,,,,
Autisme Aveyron,,,12000 Le Monastère,2.5710426,44.3460834,autisme.aveyron@free.fr,"09 51 12 47 31, 09 56 12 47 31",,,,,,,,,,
MANO Autisme,,"Partenaire Autisme France, Membre URAF-MPy",4 rue du Claux 12850 Onet-le-Château,2.580307,44.3431659,patrick-barbara.lacroux@orange.fr,565780075,,,,,,,,,,
ADAPEI Aveyron/Tarn-et-Garonne,,,Saint-Mayme 12850 Onet-le-Château,2.5834556,44.3669444,secretariat.siege@adapei12-82.fr,"05 65 77 22 40, 05 65 77 22 41",,,,,,,,,,
Centre de Ressources Autisme Midi-Pyrénées,,Coordonnateur : Dr Thierry Maffre,Place Lange (CHU La Grave) TSA 60033 31059 Toulouse CEDEX 9,2.608558,44.373323,,"05 61 31 08 24, 05 62 21 12 78",,,,,,,,,,
Unité régionale d’évaluation des enfants SUPEA CHU Toulouse,,,Place Lange (CHU La Grave) TSA 60033 31059 Toulouse CEDEX 9,,,,"05 61 77 79 55, 05 61 77 79 02",,,,,,,,,,
Unité mobile d’évaluation enfants du Grand Toulouse SUPEA CHU Toulouse,,Enfants de moins de 5 ans,Place Lange (CHU La Grave) TSA 60033 31059 Toulouse CEDEX 9,,,,561777955,,,,,,,,,,
Autisme 31,,"Partenaire Autisme France, Membre URAF-MPy",116 rue des Amidonniers 31000 Toulouse,,,"autisme31@gmail.com,, autisme31@wanadoo.fr","05 61 73 12 73, 05 61 73 12 73",,,,,,,,,,
Autisme Midi-Pyrénées,,Partenaire Autisme France,30 rue des Mûriers 31700 Blagnac,1.4155023,43.609559,autismidipy@orange.fr,977609642,,,,,,,,,,
CAPTED,,Membre URAF-MPy,44 route de Gratentour 31150 Bruguières,1.3873877,43.6363475,"capted.tsa@gmail.com,, capted@orange.fr","05 62 18 52 45, 06 13 07 57 10",,,,,,,,,,
CeRESA,,"Partenaire Autisme France, Membre URAF-MPy",1 impasse de Lisieux 31300 Toulouse,1.4252141,43.7265467,contact@ceresa.fr,561165343,,,,,,,,,,
Les Enfants de TSA,,,133 avenue du Lauragais 31320 Castanet-Tolosan,1.3943906,43.6001511,lesenfantsdetsa@gmail.com,659412376,,,,,,,,,,
SESSAD A.C.C.E.S.,,Partenaire Autisme France,1 impasse de Lisieux 31300 Toulouse,1.5087895,43.5063579,,561165343,,,,,,,,,,
Sésame Autisme Midi-Pyrénées,,,31380 Montastruc-la-Conseillère,1.3943906,43.6001511,"contact@sesame-mp.fr,, sesame.autisme.mp@gmail.com",561843293,,,,,,,,,,
Terre d’Ados,,"Partenaire Autisme France, Membre URAF-MPy",11 rue des Fauvettes 31320 Castanet-Tolosan,1.591348,43.717094,terredados@gmail.com,680735361,,,,,,,,,,
Autisme Gers,,"Partenaire Autisme France, Membre URAF-MPy",36 rue des Canaris BP 20587 32022 Auch CEDEX 9,1.5057464,43.513455,autismegers@yahoo.fr,"05 62 62 67 02, 06 79 37 93 63",,,,,,,,,,
URAF-MPy (Union Régionale Autisme France Midi-Pyrénées),,"Partenaire Autisme France, Regroupement de 10 associations",Les Bourdettes 32130 Lahas,,,urafmpy@gmail.com,"05 62 62 67 02, 06 79 37 93 63",,,,,,,,,,
A.V.A.A. 32,,Membre URAF-MPy,57 rue Paul Verlaine 32000 Auch,0.890964,43.55495699999999,avaa32@orange.fr,667219040,,,,,,,,,,
CRI 46 - Choix Rationnel d’Intégration,,"Partenaire Autisme France, Membre URAF-MPy",Bagadou Bas 46600 Martel,0.5905119999999999,43.6665733,cri46@wanadoo.fr,565374007,,,,,,,,,,
Autisme 65,,,5 rue de Belfort 65000 Tarbes,1.63082,44.927175,autisme65@orange.fr,"05 62 53 17 37, 06 88 36 59 10",,,,,,,,,,
CAMSP Bon Sauveur d’Alby,,Equipe associée d’évaluation enfants du Tarn,1 boulevard Clémenceau (Unité d’évaluation autisme) 81000 Albi,0.0811752,43.2301155,,"05 63 48 55 40, 05 63 48 54 25",,,,,,,,,,
I.A.C.A (Intervenants Accompagnements Certifiés Agrées),,,5 square Paul Éluard 81100 Castres,2.1486413,43.9250853,lambert.ch@msn.com,629652836,,,,,,,,,,
Envol Tarn,,"Partenaire Autisme France, Membre URAF-MPy",1 route de Lezert (Camp Blanc) 81990 Cambon d’Albi,2.2395329,43.6076146,envol-tarn@wanadoo.fr,563788080,,,,,,,,,,
FAM Lou Bouscaillou,,"Géré par l’association « Envol Tarn », Partenaire Autisme France",Route Mouzieys 81430 Villefranche-d’Albigeois,2.1486413,43.9250853,,563788080,,,,,,,,,,
Autisme 82,,,10 rue Jean Carmet (Maison des Associations) 82000 Montauban,2.3262196,43.8924248,autisme.montauban.82@gmail.com,601484060,,,,,,,,,,
Centre de Ressources Autisme Nord-Pas-de-Calais,,,150 rue du docteur Alexandre Yersin (Parc Eurasanté Ouest) 59120 Loos,1.3529599,44.0221252,,"03 20 60 62 59, 03 20 60 62 50",,,,,,,,,,
Union Régionale Autisme France Nord-Pas-de-Calais,,Partenaire Autisme France,250 rue du Commandant Bayard BP 12 59242 Genech,3.017729,50.61513900000001,,320055270,,,,,,,,,,
Maison Loisirs Littoral,,Partenaire Autisme France,46 boulevard Léo Lagrange 59820 Gravelines,3.2173949,50.528929,maisonloisirslittoral@yahoo.fr,328234366,,,,,,,,,,
Pas à pas,,,Rue Convention 59650 Villeneuve d’Ascq,2.1125562,51.0049194,,320478091,,,,,,,,,,
Autisme Nord,,Partenaire Autisme France,250 rue du Cdt Bayart BP 12 59242 Genech,3.1484712,50.64102210000001,,"03 20 05 52 70, 03 27 87 46 42",,,,,,,,,,
FAM la Ferme au Bois,,,250 rue Bayard BP 40 59242 Genech,3.2173949,50.528929,,Autisme France,,,,,,,,,,
"La Main Tendue, Handicap, Autisme",,Partenaire Autisme France,38 Dievenstraete 59270 Bailleul,3.2173949,50.528929,lamaintendue.handicapautisme@orange.fr,328496632,,,,,,,,,,
Autisme Loisirs,,Partenaire Autisme France,"43 rue du maréchal Lyautey (rés. Europe, app 2113, bât. C3) 59370 Mons-en-Barœul",2.7204549,50.7333516,,320913689,,,,,,,,,,
L’ASS des AS’,,Alliance des 4A,Boulevard du Pr. Jules Leclercq (1 Bâtiment Paul Boulanger) 59000 Lille,3.1080263,50.6415211,ass.des.as@gmail.com,636629108,,,,,,,,,,
EPAJ 59,,,22 rue de Wattiessart 59113 Seclin,3.0423599,50.6138111,epaj59@yahoo.fr,665135977,,,,,,,,,,
Réseau Bulle (national),,Entraide et solidarité pour les familles et les personnes concernées par l’autisme,84 rue du Faubourg de Paris (Maison des Associations) 59300 Valenciennes,3.0318301,50.5458682,association@reseaubulle.fr,621265391,,,,,,,,,,
Réseau Bulle 59,,,59300 Valenciennes,3.518332,50.357113,association59@reseaubulle.fr,06 21 26 53 91 (Cédric),,,,,,,,,,
Autisme Pas-de-Calais,,,14 bis rue Léon Blum 62300 Lens,3.518332,50.357113,,321438204,,,,,,,,,,
Opale Autisme 62,,Partenaire Autisme France,49 rue des Chataigners 62231 Coquelles,2.8012079,50.4417128,,"06 03 68 66 21, 03 21 19 07 51",,,,,,,,,,
Centre de Ressources Autisme Guadeloupe,,Coordonnateurs : M Francis Farant – Mme Maryse Christophe,Rue Thomas Edison (Immeuble Nevada – n°39 Bât B -  ZI de Jarry) 97122 Baie-Mahault,1.8554766,50.9283784,,"+590 25 23 90, +590 41 12 77",,,,,,,,,,
Association J’Existe,,,413 chemin Saint-Michel 97123 Baillif,,,,Autisme France,,,,,,,,,,
Centre de Ressources Autisme Martinique,,,81 rue Raymond Garcin 97200 Fort-de-France,-61.7414904,16.0301297,,"+596 56 07 02, +596 56 64 05",,,,,,,,,,
Espace Anita et Léon Laouchez,,,"Boulevard Nelson Mandela, Dillon (Eaux Découpées) 97200 Fort-de-France",-61.0782694,14.622497,martiniqueautisme@orange.fr,+596 48 39 95,,,,,,,,,,
Martinique Autisme,,Partenaire Autisme France,Boulevard Nelson Mandela (Espace Anita et Léon Laouchez - Les Eaux Découpées) 97200 Fort-de-France,-61.0587804,14.6160647,,+596 48 03 95,,,,,,,,,,
Association SHSM,,Partenaire Autisme France,Route de Zaïre (Centre Atoumaux – Quartier Bellay) 97228 Sainte-Luce,-61.0587804,14.6160647,,"+596 63 12 02, 06 96 17 91 93",,,,,,,,,,
Centre de Ressources Autisme Guyane,,,10 rue des Galaxies (Service de pédopsychiatrie - Novaparc VII – Bât. M) 97300 Cayenne,,,cr-autisme@ch-cayenne.fr,"+594 29 84 24, +594 29 84 30,",,,,,,,,,,
Centre de Ressources Inter-régional Autisme Réunion-Mayotte,,Coordonnateur : Dr Valérie Trommsdorff,14 ruelle Rivière 97436 Saint-Leu,-52.3134531,4.92242,,"+262 22 59 52, +262 44 26 33",,,,,,,,,,
Autisme Bel Avenir,,,5A rue Victor Hugo 97450 Saint-Louis,55.2894784,-21.1692339,contact@autismebelavenir.re,"+262 70 99 99, +262 39 58 86,",,,,,,,,,,
Autisme Réunion,,Partenaire Autisme France,61 chemin Ringuet 97441 Sainte-Suzanne,7.551894700000001,47.5785658,,"+262 23 86 83, +262 48 57 43",,,,,,,,,,
Autism’Espoir Nouvelle-Calédonie,,Partenaire Autisme France,19 rue Jenner (Vallée du Génie) BP 18462 98807 Nouméa CEDEX,55.5752822,-20.9273937,,+687 26 40 40,,,,,,,,,,
Association « Moi Je TED »,,Partenaire Autisme France,4 rue Adolphe Unger (Vallée des Colons) BP 18344 98857 Nouméa,,,,+687 86 71 12,,,,,,,,,,
Centre Ressources Autisme des Pays de la Loire Antenne de Nantes,,,36 a rue de la Chauvinière 44800 Saint-Herblain,166.4505243,-22.2558234,,"02 40 94 94 00, 02 40 63 53 15",,,,,,,,,,
Autisme 44,,Partenaire Autisme France,18 avenue Jean Moulin 44100 Nantes,-1.6346574,47.23369,,628053307,,,,,,,,,,
Autisme Ouest 44,,,13 avenue Landes de la Touche 44240 Sucé-sur-Erdre,-1.6045343,47.2010489,autismeouest44@live.fr,628053307,,,,,,,,,,
Change ton Regard,,,9 rue du Vivier (CSC-Ragon) 44400 Rezé,-1.536736,47.3497123,,changetonregard@gmail.com,,,,,,,,,,
La Chrysalide de l’Être,,École Privée spécialisée,Route du Noëllo 44500 La Baule,-1.5475003,47.1745467,contact@lachrysalidedeletre.fr,681942395,,,,,,,,,,
Centre Ressources Autisme des Pays de la Loire,,"Coordonnateur : Pr Philippe Duverger, Directeur : Matthieu Pichot",4 rue Larrey (CHU d’Angers) 49933 Angers CEDEX 9,-2.3690172,47.29330299999999,,"02 41 35 31 21, 02 41 35 31 29",,,,,,,,,,
Autisme 49,,Partenaire Autisme France,53 rue René Lacombe 49000 Angers,,,,678025868,,,,,,,,,,
Coup de Pouce,,Partenaire Autisme France,51 rue Jean Jaurès 49400 Saumur,-0.581422,47.4849323,,"02 41 52 11 75, 06 01 23 04 62",,,,,,,,,,
Autisme Mayenne « Pour vivre autrement »,,Partenaire Autisme France,2 boulevard Frédéric Simon (Chanteil) 53200 Château-Gontier,-0.0695007,47.2564134,,243078968,,,,,,,,,,
Cocci’Bleue,,Partenaire Autisme France,4 rue de la Caillerie 53960 Bonchamp-lès-Laval,-0.7069,47.8267669,,243696854,,,,,,,,,,
Autisme Sarthe – L’Éclaircie,,Partenaire Autisme France,6 rue de Vaux 72000 Le Mans,-0.6957996,48.0778384,,243874366,,,,,,,,,,
Autisme Vendée,,Partenaire Autisme France,12 impasse du Bois Dormant 85160 Saint-Jean-de-Monts,0.1954633,48.00857509999999,,251588634,,,,,,,,,,
Hop’Autisme 02,,,14 avenue de la Résistance (Résidence Alsace) 02100 Saint-Quentin,-2.0324254,46.78586809999999,melusine02100@hotmail.fr,685848421,,,,,,,,,,
Autisme 02,,Partenaire Autisme France,28 rue Philadelphie 02300 Villequier-Aumont,01/03/2874,49.847066,autisme.02@wanadoo.fr,"03 23 39 58 77, 06 47 24 30 49",,,,,,,,,,
FAM La Maison Ducellier,,Partenaire Autisme France,28 rue Philadelphie 02300 Villequier-Aumont,3.2054916,49.6549628,,"03 23 57 57 57, 09 66 95 13 41",,,,,,,,,,
SESSAD Un Jour Bleu,,,31 rue Kennedy 02000 Laon,3.2054916,49.6549628,,Autisme France,,,,,,,,,,
Autisme Oise,,,Place Bertrand Labarre (Le Muguet - La maison du Parc) 60400 Noyon,3.6170896,49.5646774,lemuguet60@gmail.com,647122106,,,,,,,,,,
Envol Picardie,,Partenaire Autisme France,81 rue Marcel Guerin (F.A.M. le Chemin) 60280 Margny-lès-Compiègne,3.0007229,49.58016600000001,,"03 44 36 49 10, 03 44 90 17 63",,,,,,,,,,
Le Muguet - Autisme Oise,,Partenaire Autisme France,Place Bertrand Labarre (Mairie de NOYON - Hôtel de Ville) 60400 Noyon,2.8111766,49.4208125,,647122106,,,,,,,,,,
Centre de Ressources Autisme Picardie,,,4 rue Grenier et Bernard 80000 Amiens,3.0007229,49.58016600000001,,"03 22 66 75 40, 03 22 66 75 99",,,,,,,,,,
Réseau Bulle 60,,Entraide et solidarité pour les familles et les personnes concernées par l’autisme,60126 Longueil-Sainte-Marie,2.29934,49.89783809999999,association60@reseaubulle.fr,06 37 19 45 14 (Stéphane),,,,,,,,,,
Autisme Picardie 80,,Partenaire Autisme France,12 rue de Chuignes 80340 Cappy,2.71758,49.35743600000001,,"03 22 76 15 55, 06 32 30 10 82",,,,,,,,,,
APEA 80,,Partenaire Autisme France,12 rue Frédérique Petit 80000 Amiens,2.7567509,49.92550809999999,,660704949,,,,,,,,,,
A.T.E.D. 80,,,4 rue de l’Union 80000 Amiens,2.2893259,49.8924809,,322467410,,,,,,,,,,
Autisme Charente,,,16170 Sonneville,2.2881185,49.8894955,"hespel.muriel@aliceadsl.fr,, hlne_bk@nordnet.fr",545960251,,,,,,,,,,
Autisme Charente-Maritime,,Partenaire Autisme France,31 rue du Cormier (Maison des Associations) 17100 Saintes,-0.133171,45.803359,,698805394,,,,,,,,,,
ABA17 - Au bonheur des Autistes,,Partenaire Autisme France,8 avenue d’Aquitaine (Petit Niort) 17150 Mirambeau,-0.633389,45.744175,aba.17@orange.fr,"06 99 59 76 16 (Eloïse), 06 99 57 11 74 (Karine)",,,,,,,,,,
Union Régionale Autisme France Poitou-Charentes,,Partenaire Autisme France,23 rue Noire 79000 Niort,-0.5684365,45.36290169999999,,652654161,,,,,,,,,,
Autisme 79 - Deux-Sèvres,,Partenaire Autisme France,23 rue Noire 79000 Niort,-0.4202512,46.3264596,,549241487,,,,,,,,,,
Canal Autisme,,,Futuroscope BP 80300 86963 Chasseneuil-du-Poitou CEDEX,-0.4202512,46.3264596,canalautisme@cned.fr,549493400,,,,,,,,,,
Centre de Ressources Autisme Poitou-Charentes,,Coordonnateur : Pr. Ludovic Gicquel,370 avenue Jacques Cœur (Centre Hospitalier Henri Laborit) BP 587 86021 Poitiers CEDEX,,,,"05 49 44 57 59, 05 49 44 57 51",,,,,,,,,,
Autisme CAAP,,Partenaire Autisme France,72 route de Chauvigny 86210 Vouneuil-sur-Vienne,,,,549526367,,,,,,,,,,
Autisme Vienne,,,BP 70830 86108 Châtellerault CEDEX,0.5528094,46.7220661,secretariat@autisme-vienne.org,602250512,,,,,,,,,,
FAM le CAAP,,Partenaire Autisme France,8 Allée Jacquard BP 20 86580 Vouneuil-sous-Biard,,,,549526367,,,,,,,,,,
ADAPEI des Alpes-de-Haute-Provence,,,Route de Saint-Jean BP 38 04160 Château-Arnoux-Saint-Auban,0.272756,46.573592,adapei.04@wanadoo.fr,"04 92 64 96 00, 04 92 64 96 02",,,,,,,,,,
Sésame Autisme 05,,,Pré Gentil 05260 Saint-Jean-Saint-Nicolas,6.008906,44.093367,,v.gonfard@orange.fr,,,,,,,,,,
ALDO,,Partenaire Autisme France,9 rue de Chateauneuf 06400 Cannes,6.2314826,44.6718098,aldo.lenorcy@laposte.net,"06 09 56 44 15, 04 93 39 08 42",,,,,,,,,,
Autisme 06,,Partenaire Autisme France,87 avenue des Anciens Combattants d’Afrique du Nord 06700 Saint-Laurent-du-Var,7.0243693,43.55291099999999,autisme06@free.fr,"09 51 44 01 88, 06 98 62 42 35",,,,,,,,,,
AME Autisme Méditerranée,,Partenaire Autisme France,14 rue Marius Aune 06400 Cannes,7.189811,43.673417,maxartuso@wanadoo.fr,"09 53 97 63 32, 09 73 54 07 59",,,,,,,,,,
FAM Les Clémentines,,Partenaire Autisme France,9 boulevard Oxford 06400 Cannes,7.018583199999999,43.5552802,,493384026,,,,,,,,,,
Autisme Apprendre Autrement,,,Chemin de la Solidarité 06510 Carros,7.024865699999999,43.56611520000001,,"04 92 08 28 04, 04 93 73 53 92",,,,,,,,,,
TED Réponses Éducatives à l’Autisme et aux Troubles Envahissants du Développement,,,5 avenue Châteaubriand 06100 Nice,7.199072200000001,43.7687432,"s.sbedico@infonie.fr,, ted.nice@infonie.fr",493514468,,,,,,,,,,
TED à Domicile,,,3 avenue de la Victoire 06320 La Turbie,7.262496399999999,43.7216032,tedadomicile@yahoo.fr,629528688,,,,,,,,,,
Union Régionale Autisme France Sud-Est,,Partenaire Autisme france,3 allée de la Grimpette 13821 La Penne-sur-Huveaune,7.3998382,43.7456668,,"07 81 32 72 80, 04 91 43 33 34",,,,,,,,,,
ARCO IRIS Atouts Avenir Autiste Asperger,,,285 rue d’Endoume (Centre socio-culturel d’Endoume) 13007 Marseille,5.5176495,43.2872486,,607833795,,,,,,,,,,
Autisme 13 - ARCO IRIS,,Partenaire Autisme France,3 allée de la Grimpette 13821 La Penne-sur-Huveaune,5.3529962,43.2831238,"secretariat@autisme13.fr,, michel.tirlot@orange.fr",491433334,,,,,,,,,,
L’Avancée,,Partenaire Autisme France,1 rue de la Futaie (Maison de Quartier de Trigance) 13800 Istres,5.5176495,43.2872486,"l.avancee.ted@gmail.com,, l.avancee@laposte.net","09 80 58 51 75, 06 17 71 10 68",,,,,,,,,,
Les Tournesols,,,21 boulevard François Camoin 13013 Marseille,4.9454803,43.5212157,les.tournesols.org@free.fr,680946088,,,,,,,,,,
Pas à Part Bouches-du-Rhône,,,2 avenue du général Maxime Weygand 13010 Marseille,5.4414231,43.35445490000001,contact@pasapart-bdr.fr,634495215,,,,,,,,,,
Pélagie,,Membre du RHAAP,321 place du Général de Gaulle 13300 Salon-de-Provence,5.4421376,43.2793693,"secretaire.pelagie@sfr.fr,, ricalevy@hotmail.fr",617820806,,,,,,,,,,
APAR,,,195 avenue de Provence 13300 Salon-de-Provence,5.095425,43.6420503,apar@apar.asso.fr,486220009,,,,,,,,,,
SOLIANE,,,44 boulevard Rabatau 13008 Marseille,5.0967373,43.6531241,"contact@associationsoliane.fr,, associationsoliane@hotmail.com",491293940,,,,,,,,,,
TEDeam,,,1 rue de Lorraine 13008 Marseille,5.3950192,43.27453,natacha.didier@free.fr,611155570,,,,,,,,,,
La Sainte-Victoire contre l’Autisme,,,Château Coussin Sainte-Victoire 13530 Trets,5.3858603,43.2777557,jhr@jhrodetconsulting.com,680112256,,,,,,,,,,
TED & Jules,,,93 La Canebière 13001 Marseille,5.684154899999999,43.446909,,pat.roux@neuf.fr,,,,,,,,,,
Un Rêve de Sport et de Loisirs pour enfants Autistes,,,89 boulevard Longchamp 13001 Marseille,5.3816936,43.2981887,unrevesportsloisirs@gmail.fr,666385050,,,,,,,,,,
URAFSE,,Regroupement de 16 associations,3 allée de la Grimpette 13821 La Penne-sur-Huveaune,5.3906985,43.3024819,urafse@orange.fr,urafse@autisme13.fr,,,,,,,,,,
AIDERA Var,,Partenaire Autisme France,16 rue des Citronniers 83130 La Garde,5.5176495,43.2872486,,"06 03 58 01 29, 08 72 72 74 07",,,,,,,,,,
Autisme PACA,,,443 avenue du Brusc 83140 Six-Fours-les-Plages,6.0022579,43.1164816,autismepaca@gmail.com,637809210,,,,,,,,,,
Autisme Relais Accompagnement,,Partenaire Autisme France,712 Les Plantades 83510 Saint-Antonin-du-Var,5.8255702,43.0927078,autisme.relais@orange.fr,607991614,,,,,,,,,,
Autisme Solidarité,,Partenaire Autisme France,97 chemin de l’Eau Salée 83670 Barjols,6.2756155,43.4833283,,"04 94 77 14 71, 06 79 59 69 01, 04 94 77 14 71",,,,,,,,,,
Var Autisme,,,18 rue Fréderic mireur 83300 Draguignan,6.003819699999999,43.5516122,varautisme@yahoo.fr,"04 94 85 06 95, 06 61 85 86 22",,,,,,,,,,
Le Pas,,,Route des Cabannes (Quartier le Brou) 84860 Caderousse,6.4636822,43.5392968,,le.pas84@wanadoo.fr,,,,,,,,,,
TEDAI 84,,Partenaire Autisme France,33 rue Santo Estello (Clos les Félibres) 84000 Avignon,4.754194399999999,44.1054536,tedai84@orange.fr,490825941,,,,,,,,,,
Réseau Autistes Sans Frontières – Pas à pas,,,Quartier La Gayères 84260 Sarrians,4.8209596,43.94700419999999,,490654800,,,,,,,,,,
Centre d’Évaluation et de Diagnostic de l’Autisme de l’Ain,,,14 rue de l’École 01000 Bourg-en-Bresse,4.971544,44.083415,,474522708,,,,,,,,,,
ACABADOM,,,07230 Lablachère,5.2267465,46.20833080000001,contact@acabadom.fr,676189864,,,,,,,,,,
ADAPEI 07,,,07100 Roiffieux,4.214155,44.4631029,elchambert@aol.com,475691192,,,,,,,,,,
Plateforme d’Informations et de Formations Autisme - PIFA,,,07200 Vesseaux,4.65794,45.226991,pifaardeche@gmail.com,643266685,,,,,,,,,,
Planète Autisme,,Partenaire Autisme France,4 rue Saint Jean (Bureau 204 - Maison des Sociétés) 26000 Valence,4.439654,44.651072,planete.autisme.drome.ardeche@gmail.com,682273953,,,,,,,,,,
APESA 26/07,,"Partenaire Autisme France, C/O Marie-Hélène AUDIER",15 boulevard Joliot Curie 26130 Saint-Paul-Trois-Châteaux,4.89236,44.933393,,"04 75 92 41 97, 06 32 79 96 79",,,,,,,,,,
Agir pour L’Autisme,,,920 chemin de la Graveline 26780 Malataverne,4.7639913,44.3474408,agirpourlautisme@gmail.com,681903674,,,,,,,,,,
Centre Alpin de DIagnostic Précoce de l’Autisme (CADIPA),,,3 rue de la Gare CS 20100 38521 Saint-Égrève CEDEX,4.7231748,44.4919947,,476564404,,,,,,,,,,
La compagnie des TED,,,15 rue de la république 38000 Grenoble,,,,compagniedested@yahoo.fr,,,,,,,,,,
L’Atypik,,,10 place Edmond Arnaud 38000 Grenoble,5.729731999999999,45.1905079,atypik38@yahoo.fr,967331294,,,,,,,,,,
Le Tremplin Autisme Isère,,,12 bis place de la Liberté 38400 Saint-Martin-d’Hères,5.7342637,45.1923126,contact@aba-isere.org,"04 76 44 65 58, 06 13 64 41 18",,,,,,,,,,
Iceberg A.T.E.D.,,Partenaire Autisme France,2 avenue Abbé Morin 38144 Notre-Dame-de-Vaulx,5.767227,45.1642486,icebergated@yahoo.fr,476304672,,,,,,,,,,
Autisme Vies,,Partenaire Autisme France,104 avenue Ambroise Croizat 38400 Saint-Martin-d’Hères,5.7479825,44.9884603,autisme-vies@wanadoo.fr,"04 76 24 45 49, 06 15 33 32 35",,,,,,,,,,
Envol Isère,,Partenaire Autisme France,BP 241 38305 Bourgoin-Jallieu CEDEX 5,5.7523802,45.1843242,envol.isere.autisme38@orange.fr,"04 74 54 31 80, 04 76 53 19 71, 04 74 54 31 80",,,,,,,,,,
Sésame Autisme Dauphiné Savoie,,,2457 route de Meylan 38330 Biviers,,,sesames@yahoo.fr,476410519,,,,,,,,,,
SAtedI,,"Association d’autistes à vocation internationale : site internet, forum, journal, rencontres",6 boulevard de la Résistance 38450 Vif,5.812092600000001,45.2426194,,secretariat@satedi.net,,,,,,,,,,
FAM l’Envolée,,Partenaire Autisme France,29 rue du Creuzat BP 26 38081 L’Isle-d’Abeau,5.674852899999999,45.0522505,,474275580,,,,,,,,,,
SESSAD Outrebleu,,Partenaire Autisme France,3 rue Anatole France 38150 Roussillon,5.230114899999999,45.623157,,760188332,,,,,,,,,,
SESSAD Orion,,Partenaire Autisme France,19 boulevard Chantourne 38700 La tronche,4.8031782,45.3632377,,760188332,,,,,,,,,,
Fédération des services de Pédiatrie génétique et psychiatrique de l’enfant,,,CHU de Saint-Étienne 42055 Saint-Étienne CEDEX 2,5.744876,45.1975417,,477127996,,,,,,,,,,
Autisme Loire,,,11 rue René Cassin 42100 Saint-Étienne,,,,477805360,,,,,,,,,,
Autistes dans la Cité,,Partenaire Autisme France,15 rue de la Découverte 42100 Saint-Étienne,4.3857526,45.4209861,,"04 77 37 17 87, 06 21 77 31 98",,,,,,,,,,
EURECAH,,,16 rue Antoine Dumaine 42400 Saint-Chamond,4.4228683,45.4309947,associationeurecah@gmail.com,"04 77 31 72 71, 06 76 74 48 30",,,,,,,,,,
Les Yeux du Cœur,,Personnes autistes et aveugles,452 rue du Viognier 42560 Boisset-Saint-Priest,4.5029287,45.4588633,,477762548,,,,,,,,,,
A.B.A. - Apprendre autrement Loire Forez,,,81 rue Georges Brassens 42210 Saint André le Puy,4.104813,45.5265904,,abaloireforez@laposte.net,,,,,,,,,,
Autisme Forez les dauphins,,Aide aux familles et aux structures,Impasse de l’Industrie 42600 Savigneux,4.2598907,45.6513955,,477587108,,,,,,,,,,
Le Château d’Aix,,Ensemble de structures d’accueil,42260 Saint-Martin La Sauveté,4.098253,45.605707,,477625757,,,,,,,,,,
Centre de Ressources Autisme Rhône-Alpes,,,95 boulevard Pinel (Centre Hospitalier Le Vinatier) BP 300 39 69678 Bron CEDEX,3.921933,45.83348600000001,,"04 37 91 54 65, 04 37 91 54 37",,,,,,,,,,
Centre d’Évaluation et de Diagnostic de l’Autisme Donald T.,,"Responsables : Dr. E. Venet, Dr. D. Frassati","95 boulevard Pinel (Centre Hospitalier Le Vinatier, bât. 355b) BP 300 39 69678 Bron CEDEX",,,,437915230,,,,,,,,,,
Autisme Rhône,,Partenaire Autisme France,111 rue du commandant Charcot 69110 Sainte-Foy-lès-Lyon,,,,472842974,,,,,,,,,,
Autisme Ambition Avenir,,,Allée du Petit Prince (Immeuble le Trait d’Union) 69220 Belleville,4.7880747,45.7450662,nadege.alloisio@gmail.com,781815848,,,,,,,,,,
A.F.I.R.R.A.,,Partenaire Autisme France,39 rue Bellecombe 69006 Lyon,4.745161,46.109457,contact@afirra.org,683834374,,,,,,,,,,
URAFRA,,,7 rue du Capitaine 69003 Lyon,4.8635475,45.768081,urafra@gmail.com,450681899,,,,,,,,,,
Autisme Éducation,,,46 rue Joliot Curie 69005 Lyon,4.8854834,45.7506479,,meliegonz@yahoo.fr,,,,,,,,,,
Sésame Autisme Rhône-Alpes,,,16 rue Pizay 69001 Lyon,4.791748399999999,45.7562572,contact@sesame-autisme-ra.com,472983181,,,,,,,,,,
LIBERTE Autisme QUAD 01,,,01380 Dommartin,4.8355084,45.7667132,ass.laq01@gmail.com,980502014,,,,,,,,,,
Réseau Bulle 69,,Entraide et solidarité pour les familles et les personnes concernées par l’autisme,69005 Lyon,4.989048899999999,46.337635,association69@reseaubulle.fr,06 60 25 44 19 (Marie),,,,,,,,,,
Centre d’Évaluation Savoyard de l’Autisme,,,Rue Longefand 73000 Bassens,4.7990749,45.7582622,cesa@chs-savoie.fr,479605253,,,,,,,,,,
CPEA Savoie,,,1097 avenue des Landiers (Centre Commercial Chamnord) 73000 Chambéry,5.9420255,45.576382,infos@cpea-savoie.com,479443507,,,,,,,,,,
EMAAS (Équipe Mobile Autisme Adulte Savoie),,,CHS de la Savoie BP 41 126 73011 Chambéry CEDEX,5.917781,45.564601,emaas@chs-savoie.fr,"04 79 60 32 45, 04 79 60 32 28",,,,,,,,,,
Autisme SAVOIE,,Partenaire Autisme France,21 rue Georges Lamarque 73200 Albertville,,,ted73@voila.fr,479616004,,,,,,,,,,
AS DYS et TDA,,,1 rue De l’Espérance (Maison des Associations) 74100 Ville-la-Grand,6.3773599,45.6678566,,undefined,,,,,,,,,,
Autisme Bassin Lémanique,,,3 place de la Mairie 74200 Margencel,6.2471439,46.2016149,,contact@autismebassinlemanique.com,,,,,,,,,,
SESSAD Autisme Éveil d’Annecy,,,96 Avenue de Brogny (Le Wall Street) 74000 Annecy,6.432195699999999,46.33842509999999,,Autisme France,,,,,,,,,,
Autisme Avenir 74,,Partenaire Autisme France,179 rue des Narcisses 74330 Épagny,6.1251614,45.8971718,autisme.avenir74@gmail.com,450240088,,,,,,,,,,
Autisme Éveil,,Partenaire Autisme France,182 allée des Sitelles 74370 Argonay,6.0842793,45.9451784,autisme.bl@gmail.com,450272544,,,,,,,,,,
Réseau Bulle 74,,Entraide et solidarité pour les familles et les personnes concernées par l’autisme,74700 Sallanches,6.1440769,45.9420345,association74@reseaubulle.fr,07 64 08 58 06 (Cindy),,,,,,,,,,
ASBL l’Arboretum,,Partenaire Autisme France,Rue de Briffœil BP 29 7600 Péruwelz,6.630556899999999,45.936661,,"+32 69 77 98 50, +32 69 77 98 51",,,,,,,,,,
Groupe Asperger,,,undefined,3.6013594,50.5149368,groupe-asperger@autisme.ch,+41 (0)21 646 56 15,,,,,,,,,,
Autisme Genève,,,4 rue des Pavillons 1205 Genève,-104.7956055,39.9129412,info@autisme-ge.ch,"+41 (0)22 329 32 07, +41 (0)79 363 15 28",,,,,,,,,,
TED-Autisme Jura,,,44 route du Monterri (c/o Véronique et Pascal Berberat) 2950 Courgenay,6.138641199999999,46.1969039,ted-autisme.jura@bluewin.ch,+41 (0)32 471 29 39,,,,,,,,,,
Autisme Neuchâtel,,,Case postale 81 (Frédéric Maillard) 2074 Marin-Epagnier,7.126815799999999,47.4031793,nfo@autisme-neuchatel.ch,+41 (0)79 133 88 42,,,,,,,,,,
Autisme Suisse Romande,,Partenaire Autisme France,4 avenue de la Chablière 1004 Lausanne,7.0015896,47.0091808,secretariat@autisme.ch,+41 (0)21 646 56 15,,,,,,,,,,
Groupe de parents Lausanne et environs,,,4 chemin du Jura (Margrit Durussel) 1024 Ecublens,6.615924499999999,46.5300436,margrit.63@gmail.com,"+41 (0)21 691 41 76, +41 (0)79 201 66 92",,,,,,,,,,
Autisme Valais,,,undefined,6.5605744,46.5285135,info@autisme-valais.ch,+41 (0)79 700 51 19,,,,,,,,,,
Sprechstunde für Autismusspektrumstörungen bei Erwachsenen,,,16 Bleichemattstrasse (ZPPA Aarau) 5001 Aarau,-104.7956055,39.9129412,epd.autismus@pdag.ch,+41 (0)56 461 91 00,,,,,,,,,,
Dipl.-Psych. Piero Rossi,,,39 Ausserdorfstrasse (Fachpsychologe für Psychotherapie FSP) 5603 Staufen,8.0457015,47.390434,piero.rossi@hin.ch,+41 (0)62 891 77 90,,,,,,,,,,
Psychiatrische Dienste Aargau AG,,,605 Postfach (Autismus Beratung IAS) 5201 Brugg,8.1681976,47.3836889,autismusberatung@pdag.ch,+41 (0)56 461 99 80,,,,,,,,,,
Autismus Deutsche Schweiz,,,354 Riedhofstrasse 8049 Zürich,8.2109103,47.48673549999999,info@autismus.ch,+41 (0)44 341 13 13,,,,,,,,,,
AutismeSuisse (AutismusSchweiz / AutismoSvizzera),,,19 Neuengasse 2502 Biel-Bienne,8.482979,47.4090486,sekretariat@autism.ch,+41 (0)32 322 10 25,,,,,,,,,,
,,,,7.2431056,47.1376021,,,,,,,,,,,,
